{
  "type": "FeatureCollection",
  "features": [
    {
      "type": "Feature",
      "geometry": {
        "type": "Polygon",
        "coordinates": [
          [
            [
              3.097975146531026,
              50.633382911657726
            ],
            [
              3.0915009873744084,
              50.63235214260145
            ],
            [
              3.0900871436374713,
              50.62794187954923
            ],
            [
              3.0951467943676403,
              50.62456267896205
            ],
            [
              3.101619910087145,
              50.62559353911681
            ],
            [
              3.1030344184034258,
              50.63000350875109
            ],
            [
              3.097975146531026,
              50.633382911657726
            ]
          ]
        ]
      },
      "properties": {
        "uuid": "9bae5c5c-669b-4136-ba4e-7691c6072b3f",
        "h3_index": "88194d29d5fffff",
        "city_code": "59350",
        "city_name": "Lille",
        "latitude": 50.6289729105799,
        "longitude": 3.0965608720145847,
        "manual_surge": 0,
        "available": true,
        "status": "active",
        "dept_code": "59",
        "id": "LIL-59-59350"
      }
    },
    {
      "type": "Feature",
      "geometry": {
        "type": "Polygon",
        "coordinates": [
          [
            [
              3.001406677723597,
              50.638906124170326
            ],
            [
              2.9949274677454105,
              50.63786973121952
            ],
            [
              2.993519544007121,
              50.63345643178819
            ],
            [
              2.998590162525293,
              50.630079818134945
            ],
            [
              3.005068328851946,
              50.631116300792016
            ],
            [
              3.0064769202017607,
              50.635529307386705
            ],
            [
              3.001406677723597,
              50.638906124170326
            ]
          ]
        ]
      },
      "properties": {
        "uuid": "351dbf34-b91b-4171-bf50-1339a2ce7873",
        "h3_index": "88194d6683fffff",
        "city_code": "59350",
        "city_name": "Lille",
        "latitude": 50.63449308643187,
        "longitude": 2.999998321987136,
        "manual_surge": 0,
        "available": true,
        "status": "active",
        "dept_code": "59",
        "id": "LIL-59-59350"
      }
    },
    {
      "type": "Feature",
      "geometry": {
        "type": "Polygon",
        "coordinates": [
          [
            [
              3.094329265466378,
              50.641171976952606
            ],
            [
              3.0878540625894573,
              50.64014129891266
            ],
            [
              3.086440256033058,
              50.635731235066174
            ],
            [
              3.0915009873744084,
              50.63235214260145
            ],
            [
              3.097975146531026,
              50.633382911657726
            ],
            [
              3.099389617956352,
              50.6377926821532
            ],
            [
              3.094329265466378,
              50.641171976952606
            ]
          ]
        ]
      },
      "properties": {
        "uuid": "8f9e0cd1-6df8-4a19-ad22-2c985619f3b1",
        "h3_index": "88194d29c3fffff",
        "city_code": "59350",
        "city_name": "Lille",
        "latitude": 50.636762175083334,
        "longitude": 3.0929150279709123,
        "manual_surge": 0,
        "available": true,
        "status": "active",
        "dept_code": "59",
        "id": "LIL-59-59350"
      }
    },
    {
      "type": "Feature",
      "geometry": {
        "type": "Polygon",
        "coordinates": [
          [
            [
              3.0591274663726904,
              50.62719180252429
            ],
            [
              3.052652218232774,
              50.626158435233066
            ],
            [
              3.0512409604500954,
              50.621746600781904
            ],
            [
              3.0563042850920987,
              50.61836842684738
            ],
            [
              3.062778490011504,
              50.619401884710015
            ],
            [
              3.0641904133992743,
              50.62381342592648
            ],
            [
              3.0591274663726904,
              50.62719180252429
            ]
          ]
        ]
      },
      "properties": {
        "uuid": "dc63997f-bf60-4aa2-94f4-d9a5cb442402",
        "h3_index": "88194d29abfffff",
        "city_code": "59350",
        "city_name": "Lille",
        "latitude": 50.622780229919606,
        "longitude": 3.0577157774457424,
        "manual_surge": 0,
        "available": true,
        "status": "active",
        "dept_code": "59",
        "id": "LIL-59-59350"
      }
    },
    {
      "type": "Feature",
      "geometry": {
        "type": "Polygon",
        "coordinates": [
          [
            [
              3.062778490011504,
              50.619401884710015
            ],
            [
              3.0563042850920987,
              50.61836842684738
            ],
            [
              3.054892989272397,
              50.61395639334997
            ],
            [
              3.0599552329466975,
              50.610578111007655
            ],
            [
              3.066428394928299,
              50.611611659523874
            ],
            [
              3.067840356063312,
              50.61602339971959
            ],
            [
              3.062778490011504,
              50.619401884710015
            ]
          ]
        ]
      },
      "properties": {
        "uuid": "253c6511-b94e-4af2-b280-7d2d62d0df0c",
        "h3_index": "88194d29bdfffff",
        "city_code": "59350",
        "city_name": "Lille",
        "latitude": 50.61499011305628,
        "longitude": 3.0613667632070887,
        "manual_surge": 0,
        "available": true,
        "status": "active",
        "dept_code": "59",
        "id": "LIL-59-59350"
      }
    },
    {
      "type": "Feature",
      "geometry": {
        "type": "Polygon",
        "coordinates": [
          [
            [
              3.054892989272397,
              50.61395639334997
            ],
            [
              3.0484190344170043,
              50.61292224055553
            ],
            [
              3.0470083660879625,
              50.60850971486517
            ],
            [
              3.0520709870776352,
              50.605131635249286
            ],
            [
              3.058543899191044,
              50.60616587860659
            ],
            [
              3.0599552329466975,
              50.610578111007655
            ],
            [
              3.054892989272397,
              50.61395639334997
            ]
          ]
        ]
      },
      "properties": {
        "uuid": "d5041538-866c-495d-8854-04c5bd0f5b67",
        "h3_index": "88194d29b5fffff",
        "city_code": "59350",
        "city_name": "Lille",
        "latitude": 50.60954412946981,
        "longitude": 3.053481889947363,
        "manual_surge": 0,
        "available": true,
        "status": "active",
        "dept_code": "59",
        "id": "LIL-59-59350"
      }
    },
    {
      "type": "Feature",
      "geometry": {
        "type": "Polygon",
        "coordinates": [
          [
            [
              2.994080007357681,
              50.654484842734405
            ],
            [
              2.9875987092286773,
              50.653448628948574
            ],
            [
              2.986190864772526,
              50.649035728708206
            ],
            [
              2.9912636501420127,
              50.64565933494659
            ],
            [
              2.9977439040542797,
              50.64669563827365
            ],
            [
              2.999152416703546,
              50.65110824581171
            ],
            [
              2.994080007357681,
              50.654484842734405
            ]
          ]
        ]
      },
      "properties": {
        "uuid": "917853cd-5d52-44c6-b548-de0885b4a18c",
        "h3_index": "88194d668dfffff",
        "city_code": "59350",
        "city_name": "Lille",
        "latitude": 50.650072204192355,
        "longitude": 2.9926717305835213,
        "manual_surge": 0,
        "available": true,
        "status": "active",
        "dept_code": "59",
        "id": "LIL-59-59350"
      }
    },
    {
      "type": "Feature",
      "geometry": {
        "type": "Polygon",
        "coordinates": [
          [
            [
              3.087034148873283,
              50.65674918433708
            ],
            [
              3.0805568577058295,
              50.65571868808319
            ],
            [
              3.079143125812754,
              50.65130902307512
            ],
            [
              3.0842060195282035,
              50.647930147528854
            ],
            [
              3.090682266408713,
              50.648960734634656
            ],
            [
              3.092096663750403,
              50.65337010642558
            ],
            [
              3.087034148873283,
              50.65674918433708
            ]
          ]
        ]
      },
      "properties": {
        "uuid": "4435712c-b1a5-46eb-bfbb-f89d846d28e5",
        "h3_index": "88194d29cdfffff",
        "city_code": "59350",
        "city_name": "Lille",
        "latitude": 50.65233978131184,
        "longitude": 3.0856199857217947,
        "manual_surge": 0,
        "available": true,
        "status": "active",
        "dept_code": "59",
        "id": "LIL-59-59350"
      }
    },
    {
      "type": "Feature",
      "geometry": {
        "type": "Polygon",
        "coordinates": [
          [
            [
              3.0433553324668234,
              50.61630021174847
            ],
            [
              3.03688058507649,
              50.615265454421944
            ],
            [
              3.0354705825749746,
              50.61085263552176
            ],
            [
              3.0405346615261872,
              50.60747486714865
            ],
            [
              3.0470083660879625,
              50.60850971486517
            ],
            [
              3.0484190344170043,
              50.61292224055553
            ],
            [
              3.0433553324668234,
              50.61630021174847
            ]
          ]
        ]
      },
      "properties": {
        "uuid": "6cee12c6-9109-4608-a8d4-8084462d7b6e",
        "h3_index": "8819499349fffff",
        "city_code": "59350",
        "city_name": "Lille",
        "latitude": 50.611887654627814,
        "longitude": 3.041944898798616,
        "manual_surge": 0,
        "available": true,
        "status": "active",
        "dept_code": "59",
        "id": "LIL-59-59350"
      }
    },
    {
      "type": "Feature",
      "geometry": {
        "type": "Polygon",
        "coordinates": [
          [
            [
              3.067014850082386,
              50.632635816878086
            ],
            [
              3.0605393519123174,
              50.63160314461902
            ],
            [
              3.0591274663726904,
              50.62719180252429
            ],
            [
              3.0641904133992743,
              50.62381342592648
            ],
            [
              3.070664868152935,
              50.62484618884767
            ],
            [
              3.0720774191862454,
              50.629257237695285
            ],
            [
              3.067014850082386,
              50.632635816878086
            ]
          ]
        ]
      },
      "properties": {
        "uuid": "450882a3-1c1c-4a6d-81ad-de6abbb24b8c",
        "h3_index": "88194d2985fffff",
        "city_code": "59350",
        "city_name": "Lille",
        "latitude": 50.62822473666329,
        "longitude": 3.065602533409787,
        "manual_surge": 0,
        "available": true,
        "status": "active",
        "dept_code": "59",
        "id": "LIL-59-59350"
      }
    },
    {
      "type": "Feature",
      "geometry": {
        "type": "Polygon",
        "coordinates": [
          [
            [
              3.0056329229742462,
              50.65214385361133
            ],
            [
              2.999152416703546,
              50.65110824581171
            ],
            [
              2.9977439040542797,
              50.64669563827365
            ],
            [
              3.0028152297740394,
              50.64331893130798
            ],
            [
              3.0092946919135786,
              50.644354628822065
            ],
            [
              3.0107038723542625,
              50.648766943577975
            ],
            [
              3.0056329229742462,
              50.65214385361133
            ]
          ]
        ]
      },
      "properties": {
        "uuid": "4da923a0-3fb3-4acb-89ba-e7c48b4e87f8",
        "h3_index": "88194d6689fffff",
        "city_code": "59350",
        "city_name": "Lille",
        "latitude": 50.64773150780242,
        "longitude": 3.004223978177812,
        "manual_surge": 0,
        "available": true,
        "status": "active",
        "dept_code": "59",
        "id": "LIL-59-59350"
      }
    },
    {
      "type": "Feature",
      "geometry": {
        "type": "Polygon",
        "coordinates": [
          [
            [
              3.0245017480212892,
              50.634223147209305
            ],
            [
              3.0180241217580432,
              50.63318796528414
            ],
            [
              3.016614863198064,
              50.62877525160585
            ],
            [
              3.0216825639823393,
              50.62539801283952
            ],
            [
              3.0281591467656495,
              50.62643328481717
            ],
            [
              3.029569072134452,
              50.63084570549935
            ],
            [
              3.0245017480212892,
              50.634223147209305
            ]
          ]
        ]
      },
      "properties": {
        "uuid": "10071fed-1442-4b23-89d8-396100493d27",
        "h3_index": "88194d6699fffff",
        "city_code": "59350",
        "city_name": "Lille",
        "latitude": 50.62981069528547,
        "longitude": 3.023092057804628,
        "manual_surge": 0,
        "available": true,
        "status": "active",
        "dept_code": "59",
        "id": "LIL-59-59350"
      }
    },
    {
      "type": "Feature",
      "geometry": {
        "type": "Polygon",
        "coordinates": [
          [
            [
              3.0281591467656495,
              50.62643328481717
            ],
            [
              3.0216825639823393,
              50.62539801283952
            ],
            [
              3.0202732665151055,
              50.62098509991385
            ],
            [
              3.0253398852024858,
              50.61760775201974
            ],
            [
              3.031815424788446,
              50.61864311413217
            ],
            [
              3.033225388774265,
              50.62305573399463
            ],
            [
              3.0281591467656495,
              50.62643328481717
            ]
          ]
        ]
      },
      "properties": {
        "uuid": "bb8c1e19-ca24-45f0-affb-20e4d682bbfb",
        "h3_index": "88194d669bfffff",
        "city_code": "59350",
        "city_name": "Lille",
        "latitude": 50.62202063364316,
        "longitude": 3.026749417801442,
        "manual_surge": 0,
        "available": true,
        "status": "active",
        "dept_code": "59",
        "id": "LIL-59-59350"
      }
    },
    {
      "type": "Feature",
      "geometry": {
        "type": "Polygon",
        "coordinates": [
          [
            [
              3.0397011792756983,
              50.62409040101339
            ],
            [
              3.033225388774265,
              50.62305573399463
            ],
            [
              3.031815424788446,
              50.61864311413217
            ],
            [
              3.03688058507649,
              50.615265454421944
            ],
            [
              3.0433553324668234,
              50.61630021174847
            ],
            [
              3.0447659625701085,
              50.62071253846817
            ],
            [
              3.0397011792756983,
              50.62409040101339
            ]
          ]
        ]
      },
      "properties": {
        "uuid": "de277528-b405-4f45-b3c9-46345629534f",
        "h3_index": "88194d29a7fffff",
        "city_code": "59350",
        "city_name": "Lille",
        "latitude": 50.619678042933295,
        "longitude": 3.038290783963625,
        "manual_surge": 0,
        "available": true,
        "status": "active",
        "dept_code": "59",
        "id": "LIL-59-59350"
      }
    },
    {
      "type": "Feature",
      "geometry": {
        "type": "Polygon",
        "coordinates": [
          [
            [
              3.090682266408713,
              50.648960734634656
            ],
            [
              3.0842060195282035,
              50.647930147528854
            ],
            [
              3.082792250253064,
              50.643520283030426
            ],
            [
              3.0878540625894573,
              50.64014129891266
            ],
            [
              3.094329265466378,
              50.641171976952606
            ],
            [
              3.0957436999002113,
              50.64558154816695
            ],
            [
              3.090682266408713,
              50.648960734634656
            ]
          ]
        ]
      },
      "properties": {
        "uuid": "19482468-6b8e-4aac-9878-d8ae54a623a8",
        "h3_index": "88194d29c1fffff",
        "city_code": "59350",
        "city_name": "Lille",
        "latitude": 50.64455113211625,
        "longitude": 3.0892680660348626,
        "manual_surge": 0,
        "available": true,
        "status": "active",
        "dept_code": "59",
        "id": "LIL-59-59350"
      }
    },
    {
      "type": "Feature",
      "geometry": {
        "type": "Polygon",
        "coordinates": [
          [
            [
              3.059711456381843,
              50.648214149174045
            ],
            [
              3.0532338705300313,
              50.64718165799248
            ],
            [
              3.051822060989898,
              50.642770714568556
            ],
            [
              3.0568871711176238,
              50.639392555430064
            ],
            [
              3.0633637129870164,
              50.640425137109226
            ],
            [
              3.0647761886008515,
              50.644835787420014
            ],
            [
              3.059711456381843,
              50.648214149174045
            ]
          ]
        ]
      },
      "properties": {
        "uuid": "0ceb8827-b078-4f11-96a7-c52397272de4",
        "h3_index": "88194d29e1fffff",
        "city_code": "59350",
        "city_name": "Lille",
        "latitude": 50.64380346763568,
        "longitude": 3.0582992153893658,
        "manual_surge": 0,
        "available": true,
        "status": "active",
        "dept_code": "59",
        "id": "LIL-59-59350"
      }
    },
    {
      "type": "Feature",
      "geometry": {
        "type": "Polygon",
        "coordinates": [
          [
            [
              3.113150422619518,
              50.62324428495563
            ],
            [
              3.1066781017257044,
              50.6222140283274
            ],
            [
              3.1052635566190063,
              50.6178038596967
            ],
            [
              3.1103206684072617,
              50.61442424124894
            ],
            [
              3.1167919462350637,
              50.61545458923042
            ],
            [
              3.1182071552304667,
              50.619864464297244
            ],
            [
              3.113150422619518,
              50.62324428495563
            ]
          ]
        ]
      },
      "properties": {
        "uuid": "79bea982-1999-496a-9f83-48e42cfe8eef",
        "h3_index": "88194d29d3fffff",
        "city_code": "59350",
        "city_name": "Lille",
        "latitude": 50.618834378326866,
        "longitude": 3.111735447063814,
        "manual_surge": 0,
        "available": true,
        "status": "active",
        "dept_code": "59",
        "id": "LIL-59-59350"
      }
    },
    {
      "type": "Feature",
      "geometry": {
        "type": "Polygon",
        "coordinates": [
          [
            [
              3.0439335441550797,
              50.637326092242255
            ],
            [
              3.0374564593778204,
              50.63629221064324
            ],
            [
              3.036045906029628,
              50.63188028229257
            ],
            [
              3.041111771052084,
              50.62850252861983
            ],
            [
              3.047587812239309,
              50.62953650053506
            ],
            [
              3.048999031883912,
              50.63394813579752
            ],
            [
              3.0439335441550797,
              50.637326092242255
            ]
          ]
        ]
      },
      "properties": {
        "uuid": "eac42f90-e0d0-43b5-a8c6-c3ef5b4b58af",
        "h3_index": "88194d29adfffff",
        "city_code": "59350",
        "city_name": "Lille",
        "latitude": 50.63291442571025,
        "longitude": 3.042522559332082,
        "manual_surge": 0,
        "available": true,
        "status": "active",
        "dept_code": "59",
        "id": "LIL-59-59350"
      }
    },
    {
      "type": "Feature",
      "geometry": {
        "type": "Polygon",
        "coordinates": [
          [
            [
              3.055475323527173,
              50.63498141259952
            ],
            [
              3.048999031883912,
              50.63394813579752
            ],
            [
              3.047587812239309,
              50.62953650053506
            ],
            [
              3.052652218232774,
              50.626158435233066
            ],
            [
              3.0591274663726904,
              50.62719180252429
            ],
            [
              3.0605393519123174,
              50.63160314461902
            ],
            [
              3.055475323527173,
              50.63498141259952
            ]
          ]
        ]
      },
      "properties": {
        "uuid": "7dd38138-e4c7-419f-8f4c-9333174e7504",
        "h3_index": "88194d29a9fffff",
        "city_code": "59350",
        "city_name": "Lille",
        "latitude": 50.63057003918641,
        "longitude": 3.0540636725786876,
        "manual_surge": 0,
        "available": true,
        "status": "active",
        "dept_code": "59",
        "id": "LIL-59-59350"
      }
    },
    {
      "type": "Feature",
      "geometry": {
        "type": "Polygon",
        "coordinates": [
          [
            [
              3.1173965310754803,
              50.636472621723534
            ],
            [
              3.110922918539168,
              50.63544315117344
            ],
            [
              3.1095077826464097,
              50.63103367410811
            ],
            [
              3.114565595113756,
              50.62765396109289
            ],
            [
              3.1210381641058027,
              50.62868352300486
            ],
            [
              3.1224539640645372,
              50.63309270656101
            ],
            [
              3.1173965310754803,
              50.636472621723534
            ]
          ]
        ]
      },
      "properties": {
        "uuid": "d88655e5-f272-4709-84a8-8ed19250c847",
        "h3_index": "88194d29d9fffff",
        "city_code": "59350",
        "city_name": "Lille",
        "latitude": 50.63206340669628,
        "longitude": 3.1159809645859537,
        "manual_surge": 0,
        "available": true,
        "status": "active",
        "dept_code": "59",
        "id": "LIL-59-59350"
      }
    },
    {
      "type": "Feature",
      "geometry": {
        "type": "Polygon",
        "coordinates": [
          [
            [
              3.070664868152935,
              50.62484618884767
            ],
            [
              3.0641904133992743,
              50.62381342592648
            ],
            [
              3.062778490011504,
              50.619401884710015
            ],
            [
              3.067840356063312,
              50.61602339971959
            ],
            [
              3.0743137676834507,
              50.61705625338506
            ],
            [
              3.0757263562751485,
              50.62146750128745
            ],
            [
              3.070664868152935,
              50.62484618884767
            ]
          ]
        ]
      },
      "properties": {
        "uuid": "088afd6a-6b96-4175-bdc4-f6703bc34a63",
        "h3_index": "88194d2987fffff",
        "city_code": "59350",
        "city_name": "Lille",
        "latitude": 50.620434909508305,
        "longitude": 3.0692525137917492,
        "manual_surge": 0,
        "available": true,
        "status": "active",
        "dept_code": "59",
        "id": "LIL-59-59350"
      }
    },
    {
      "type": "Feature",
      "geometry": {
        "type": "Polygon",
        "coordinates": [
          [
            [
              3.0092946919135786,
              50.644354628822065
            ],
            [
              3.0028152297740394,
              50.64331893130798
            ],
            [
              3.001406677723597,
              50.638906124170326
            ],
            [
              3.0064769202017607,
              50.635529307386705
            ],
            [
              3.0129553384928274,
              50.636565094697744
            ],
            [
              3.0143645580439906,
              50.640977608986105
            ],
            [
              3.0092946919135786,
              50.644354628822065
            ]
          ]
        ]
      },
      "properties": {
        "uuid": "f6e7a23e-7688-49be-8ccf-341d2285adec",
        "h3_index": "88194d668bfffff",
        "city_code": "59350",
        "city_name": "Lille",
        "latitude": 50.63994208341085,
        "longitude": 3.007885707875855,
        "manual_surge": 0,
        "available": true,
        "status": "active",
        "dept_code": "59",
        "id": "LIL-59-59350"
      }
    },
    {
      "type": "Feature",
      "geometry": {
        "type": "Polygon",
        "coordinates": [
          [
            [
              2.9825248398566857,
              50.65682491242675
            ],
            [
              2.976042750211021,
              50.65578809240069
            ],
            [
              2.9746355743496693,
              50.65137489953792
            ],
            [
              2.9797098194289067,
              50.64799881931422
            ],
            [
              2.986190864772526,
              50.649035728708206
            ],
            [
              2.9875987092286773,
              50.653448628948574
            ],
            [
              2.9825248398566857,
              50.65682491242675
            ]
          ]
        ]
      },
      "properties": {
        "uuid": "a34a5aa5-325e-4d05-9bbd-f015db7bb5e1",
        "h3_index": "88194d66e3fffff",
        "city_code": "59350",
        "city_name": "Lille",
        "latitude": 50.652411981231424,
        "longitude": 2.9811172315065173,
        "manual_surge": 0,
        "available": true,
        "status": "active",
        "dept_code": "59",
        "id": "LIL-59-59350"
      }
    },
    {
      "type": "Feature",
      "geometry": {
        "type": "Polygon",
        "coordinates": [
          [
            [
              3.036045906029628,
              50.63188028229257
            ],
            [
              3.029569072134452,
              50.63084570549935
            ],
            [
              3.0281591467656495,
              50.62643328481717
            ],
            [
              3.033225388774265,
              50.62305573399463
            ],
            [
              3.0397011792756983,
              50.62409040101339
            ],
            [
              3.041111771052084,
              50.62850252861983
            ],
            [
              3.036045906029628,
              50.63188028229257
            ]
          ]
        ]
      },
      "properties": {
        "uuid": "32f5896a-bd91-4941-9fc4-f70c2ed9bacc",
        "h3_index": "88194d29a5fffff",
        "city_code": "59350",
        "city_name": "Lille",
        "latitude": 50.62746812339557,
        "longitude": 3.0346355491748884,
        "manual_surge": 0,
        "available": true,
        "status": "active",
        "dept_code": "59",
        "id": "LIL-59-59350"
      }
    },
    {
      "type": "Feature",
      "geometry": {
        "type": "Polygon",
        "coordinates": [
          [
            [
              3.020843228069809,
              50.64201270094117
            ],
            [
              3.0143645580439906,
              50.640977608986105
            ],
            [
              3.0129553384928274,
              50.636565094697744
            ],
            [
              3.0180241217580432,
              50.63318796528414
            ],
            [
              3.0245017480212892,
              50.634223147209305
            ],
            [
              3.0259116346716857,
              50.638635368568636
            ],
            [
              3.020843228069809,
              50.64201270094117
            ]
          ]
        ]
      },
      "properties": {
        "uuid": "a9001446-4d8a-4473-b9b2-cf48beb831f8",
        "h3_index": "88194d66d7fffff",
        "city_code": "59350",
        "city_name": "Lille",
        "latitude": 50.63760044841002,
        "longitude": 3.019433576702179,
        "manual_surge": 0,
        "available": true,
        "status": "active",
        "dept_code": "59",
        "id": "LIL-59-59350"
      }
    },
    {
      "type": "Feature",
      "geometry": {
        "type": "Polygon",
        "coordinates": [
          [
            [
              3.0985731597406883,
              50.65439999846164
            ],
            [
              3.092096663750403,
              50.65337010642558
            ],
            [
              3.090682266408713,
              50.648960734634656
            ],
            [
              3.0957436999002113,
              50.64558154816695
            ],
            [
              3.1022191516913424,
              50.646611531227826
            ],
            [
              3.103634214079828,
              50.65102060972241
            ],
            [
              3.0985731597406883,
              50.65439999846164
            ]
          ]
        ]
      },
      "properties": {
        "uuid": "a9a9d2f0-3689-4eb0-a561-9ea2714bd822",
        "h3_index": "88194d29c9fffff",
        "city_code": "59350",
        "city_name": "Lille",
        "latitude": 50.64999088868406,
        "longitude": 3.0971583313118525,
        "manual_surge": 0,
        "available": true,
        "status": "active",
        "dept_code": "59",
        "id": "LIL-59-59350"
      }
    },
    {
      "type": "Feature",
      "geometry": {
        "type": "Polygon",
        "coordinates": [
          [
            [
              3.031815424788446,
              50.61864311413217
            ],
            [
              3.0253398852024858,
              50.61760775201974
            ],
            [
              3.0239305489294885,
              50.61319463998928
            ],
            [
              3.0289960859038674,
              50.609817183192256
            ],
            [
              3.0354705825749746,
              50.61085263552176
            ],
            [
              3.03688058507649,
              50.615265454421944
            ],
            [
              3.031815424788446,
              50.61864311413217
            ]
          ]
        ]
      },
      "properties": {
        "uuid": "d3b06e1d-cbd0-4f65-8b54-4c63573c2479",
        "h3_index": "881949934dfffff",
        "city_code": "59350",
        "city_name": "Lille",
        "latitude": 50.614230263850565,
        "longitude": 3.0304056571781013,
        "manual_surge": 0,
        "available": true,
        "status": "active",
        "dept_code": "59",
        "id": "LIL-59-59350"
      }
    },
    {
      "type": "Feature",
      "geometry": {
        "type": "Polygon",
        "coordinates": [
          [
            [
              3.082792250253064,
              50.643520283030426
            ],
            [
              3.0763162527126098,
              50.64248900086416
            ],
            [
              3.074903111426695,
              50.63807864374587
            ],
            [
              3.079965302300531,
              50.63469986205643
            ],
            [
              3.086440256033058,
              50.635731235066174
            ],
            [
              3.0878540625894573,
              50.64014129891266
            ],
            [
              3.082792250253064,
              50.643520283030426
            ]
          ]
        ]
      },
      "properties": {
        "uuid": "35ddda6c-ff73-42c4-94c8-c87aa6a765a1",
        "h3_index": "88194d29c7fffff",
        "city_code": "59350",
        "city_name": "Lille",
        "latitude": 50.63911018785885,
        "longitude": 3.0813786778569754,
        "manual_surge": 0,
        "available": true,
        "status": "active",
        "dept_code": "59",
        "id": "LIL-59-59350"
      }
    },
    {
      "type": "Feature",
      "geometry": {
        "type": "Polygon",
        "coordinates": [
          [
            [
              3.047587812239309,
              50.62953650053506
            ],
            [
              3.041111771052084,
              50.62850252861983
            ],
            [
              3.0397011792756983,
              50.62409040101339
            ],
            [
              3.0447659625701085,
              50.62071253846817
            ],
            [
              3.0512409604500954,
              50.621746600781904
            ],
            [
              3.052652218232774,
              50.626158435233066
            ],
            [
              3.047587812239309,
              50.62953650053506
            ]
          ]
        ]
      },
      "properties": {
        "uuid": "357c091f-759c-49b5-ac82-b5a88262b090",
        "h3_index": "88194d29a1fffff",
        "city_code": "59350",
        "city_name": "Lille",
        "latitude": 50.625124634744495,
        "longitude": 3.0461767891478204,
        "manual_surge": 0,
        "available": true,
        "status": "active",
        "dept_code": "59",
        "id": "LIL-59-59350"
      }
    },
    {
      "type": "Feature",
      "geometry": {
        "type": "Polygon",
        "coordinates": [
          [
            [
              2.993519544007121,
              50.63345643178819
            ],
            [
              2.9870405864198926,
              50.63241934341068
            ],
            [
              2.9856332909155454,
              50.628005551773796
            ],
            [
              2.990704285166108,
              50.624629141329
            ],
            [
              2.9971821992987886,
              50.625666319322
            ],
            [
              2.998590162525293,
              50.630079818134945
            ],
            [
              2.993519544007121,
              50.63345643178819
            ]
          ]
        ]
      },
      "properties": {
        "uuid": "b8216f3d-1fea-4fd6-874d-b575c2a6a37c",
        "h3_index": "88194d66b9fffff",
        "city_code": "59350",
        "city_name": "Lille",
        "latitude": 50.62904290181054,
        "longitude": 2.9921118164937823,
        "manual_surge": 0,
        "available": true,
        "status": "active",
        "dept_code": "59",
        "id": "LIL-59-59350"
      }
    },
    {
      "type": "Feature",
      "geometry": {
        "type": "Polygon",
        "coordinates": [
          [
            [
              3.101619910087145,
              50.62559353911681
            ],
            [
              3.0951467943676403,
              50.62456267896205
            ],
            [
              3.093732913550817,
              50.620152216846506
            ],
            [
              3.0987914840534874,
              50.6167729083614
            ],
            [
              3.1052635566190063,
              50.6178038596967
            ],
            [
              3.1066781017257044,
              50.6222140283274
            ],
            [
              3.101619910087145,
              50.62559353911681
            ]
          ]
        ]
      },
      "properties": {
        "uuid": "d0c21ab3-3fb6-4938-90e7-7785ff581988",
        "h3_index": "88194d29d7fffff",
        "city_code": "59350",
        "city_name": "Lille",
        "latitude": 50.62118333897279,
        "longitude": 3.100205598650297,
        "manual_surge": 0,
        "available": true,
        "status": "active",
        "dept_code": "59",
        "id": "LIL-59-59350"
      }
    },
    {
      "type": "Feature",
      "geometry": {
        "type": "Polygon",
        "coordinates": [
          [
            [
              3.0512409604500954,
              50.621746600781904
            ],
            [
              3.0447659625701085,
              50.62071253846817
            ],
            [
              3.0433553324668234,
              50.61630021174847
            ],
            [
              3.0484190344170043,
              50.61292224055553
            ],
            [
              3.054892989272397,
              50.61395639334997
            ],
            [
              3.0563042850920987,
              50.61836842684738
            ],
            [
              3.0512409604500954,
              50.621746600781904
            ]
          ]
        ]
      },
      "properties": {
        "uuid": "d665042f-3c63-421e-afc5-9aeb87e7e896",
        "h3_index": "88194d29a3fffff",
        "city_code": "59350",
        "city_name": "Lille",
        "latitude": 50.61733453587524,
        "longitude": 3.0498298991912827,
        "manual_surge": 0,
        "available": true,
        "status": "active",
        "dept_code": "59",
        "id": "LIL-59-59350"
      }
    },
    {
      "type": "Feature",
      "geometry": {
        "type": "Polygon",
        "coordinates": [
          [
            [
              3.0822000173040234,
              50.62249966009263
            ],
            [
              3.0757263562751485,
              50.62146750128745
            ],
            [
              3.0743137676834507,
              50.61705625338506
            ],
            [
              3.07937417520772,
              50.613677457672026
            ],
            [
              3.085846793190334,
              50.614709707394304
            ],
            [
              3.0872600465847966,
              50.6191206619033
            ],
            [
              3.0822000173040234,
              50.62249966009263
            ]
          ]
        ]
      },
      "properties": {
        "uuid": "8e15ef68-5b48-4d9d-a65d-bc4fc2c9a77f",
        "h3_index": "88194d2983fffff",
        "city_code": "59350",
        "city_name": "Lille",
        "latitude": 50.618088674097905,
        "longitude": 3.0807869979098195,
        "manual_surge": 0,
        "available": true,
        "status": "active",
        "dept_code": "59",
        "id": "LIL-59-59350"
      }
    },
    {
      "type": "Feature",
      "geometry": {
        "type": "Polygon",
        "coordinates": [
          [
            [
              3.067601730178438,
              50.653656395961356
            ],
            [
              3.061123894134412,
              50.652624600002845
            ],
            [
              3.059711456381843,
              50.648214149174045
            ],
            [
              3.0647761886008515,
              50.644835787420014
            ],
            [
              3.071252980466422,
              50.64586767396682
            ],
            [
              3.072666084181151,
              50.65027783167011
            ],
            [
              3.067601730178438,
              50.653656395961356
            ]
          ]
        ]
      },
      "properties": {
        "uuid": "065f80a1-0979-4442-8679-2151b65b0dd1",
        "h3_index": "88194d29e9fffff",
        "city_code": "59350",
        "city_name": "Lille",
        "latitude": 50.64924620705149,
        "longitude": 3.066188860984854,
        "manual_surge": 0,
        "available": true,
        "status": "active",
        "dept_code": "59",
        "id": "LIL-59-59350"
      }
    },
    {
      "type": "Feature",
      "geometry": {
        "type": "Polygon",
        "coordinates": [
          [
            [
              3.0900871436374713,
              50.62794187954923
            ],
            [
              3.0836132334297384,
              50.626910415613814
            ],
            [
              3.0822000173040234,
              50.62249966009263
            ],
            [
              3.0872600465847966,
              50.6191206619033
            ],
            [
              3.093732913550817,
              50.620152216846506
            ],
            [
              3.0951467943676403,
              50.62456267896205
            ],
            [
              3.0900871436374713,
              50.62794187954923
            ]
          ]
        ]
      },
      "properties": {
        "uuid": "a8e00aee-f3f4-44f0-a39a-368fbaf1dc23",
        "h3_index": "88194d298bfffff",
        "city_code": "59350",
        "city_name": "Lille",
        "latitude": 50.62353138596907,
        "longitude": 3.0886734967207383,
        "manual_surge": 0,
        "available": true,
        "status": "active",
        "dept_code": "59",
        "id": "LIL-59-59350"
      }
    },
    {
      "type": "Feature",
      "geometry": {
        "type": "Polygon",
        "coordinates": [
          [
            [
              3.051822060989898,
              50.642770714568556
            ],
            [
              3.0453447255604016,
              50.64173752817348
            ],
            [
              3.0439335441550797,
              50.637326092242255
            ],
            [
              3.048999031883912,
              50.63394813579752
            ],
            [
              3.055475323527173,
              50.63498141259952
            ],
            [
              3.0568871711176238,
              50.639392555430064
            ],
            [
              3.051822060989898,
              50.642770714568556
            ]
          ]
        ]
      },
      "properties": {
        "uuid": "27ece6fc-cc98-4e6b-90aa-6cdea3b5ac38",
        "h3_index": "88194d29e7fffff",
        "city_code": "59350",
        "city_name": "Lille",
        "latitude": 50.63835954048945,
        "longitude": 3.0504104481209855,
        "manual_surge": 0,
        "available": true,
        "status": "active",
        "dept_code": "59",
        "id": "LIL-59-59350"
      }
    },
    {
      "type": "Feature",
      "geometry": {
        "type": "Polygon",
        "coordinates": [
          [
            [
              3.0633637129870164,
              50.640425137109226
            ],
            [
              3.0568871711176238,
              50.639392555430064
            ],
            [
              3.055475323527173,
              50.63498141259952
            ],
            [
              3.0605393519123174,
              50.63160314461902
            ],
            [
              3.067014850082386,
              50.632635816878086
            ],
            [
              3.068427363456434,
              50.637046666528505
            ],
            [
              3.0633637129870164,
              50.640425137109226
            ]
          ]
        ]
      },
      "properties": {
        "uuid": "475387d8-07c3-4000-8e63-72d389ad7b59",
        "h3_index": "88194d29e3fffff",
        "city_code": "59350",
        "city_name": "Lille",
        "latitude": 50.636014256161445,
        "longitude": 3.061951434103981,
        "manual_surge": 0,
        "available": true,
        "status": "active",
        "dept_code": "59",
        "id": "LIL-59-59350"
      }
    },
    {
      "type": "Feature",
      "geometry": {
        "type": "Polygon",
        "coordinates": [
          [
            [
              3.0402781557120604,
              50.6451153755362
            ],
            [
              3.0338000270619525,
              50.64408158417109
            ],
            [
              3.032389512243254,
              50.639669855218656
            ],
            [
              3.0374564593778204,
              50.63629221064324
            ],
            [
              3.0439335441550797,
              50.637326092242255
            ],
            [
              3.0453447255604016,
              50.64173752817348
            ],
            [
              3.0402781557120604,
              50.6451153755362
            ]
          ]
        ]
      },
      "properties": {
        "uuid": "6c34c298-b195-473d-a67b-f10c78947145",
        "h3_index": "88194d66dbfffff",
        "city_code": "59350",
        "city_name": "Lille",
        "latitude": 50.640703908405236,
        "longitude": 3.0388672092588416,
        "manual_surge": 0,
        "available": true,
        "status": "active",
        "dept_code": "59",
        "id": "LIL-59-59350"
      }
    },
    {
      "type": "Feature",
      "geometry": {
        "type": "Polygon",
        "coordinates": [
          [
            [
              3.071252980466422,
              50.64586767396682
            ],
            [
              3.0647761886008515,
              50.644835787420014
            ],
            [
              3.0633637129870164,
              50.640425137109226
            ],
            [
              3.068427363456434,
              50.637046666528505
            ],
            [
              3.074903111426695,
              50.63807864374587
            ],
            [
              3.0763162527126098,
              50.64248900086416
            ],
            [
              3.071252980466422,
              50.64586767396682
            ]
          ]
        ]
      },
      "properties": {
        "uuid": "d57d3d3a-bfcf-4777-8bcb-ec55daba10eb",
        "h3_index": "88194d29ebfffff",
        "city_code": "59350",
        "city_name": "Lille",
        "latitude": 50.64145728557218,
        "longitude": 3.0698400735713123,
        "manual_surge": 0,
        "available": true,
        "status": "active",
        "dept_code": "59",
        "id": "LIL-59-59350"
      }
    },
    {
      "type": "Feature",
      "geometry": {
        "type": "Polygon",
        "coordinates": [
          [
            [
              3.032389512243254,
              50.639669855218656
            ],
            [
              3.0259116346716857,
              50.638635368568636
            ],
            [
              3.0245017480212892,
              50.634223147209305
            ],
            [
              3.029569072134452,
              50.63084570549935
            ],
            [
              3.036045906029628,
              50.63188028229257
            ],
            [
              3.0374564593778204,
              50.63629221064324
            ],
            [
              3.032389512243254,
              50.639669855218656
            ]
          ]
        ]
      },
      "properties": {
        "uuid": "3b2b1e84-dc1f-4c0f-bd1e-739f6570e66a",
        "h3_index": "88194d66d3fffff",
        "city_code": "59350",
        "city_name": "Lille",
        "latitude": 50.63525789564731,
        "longitude": 3.030979193947231,
        "manual_surge": 0,
        "available": true,
        "status": "active",
        "dept_code": "59",
        "id": "LIL-59-59350"
      }
    },
    {
      "type": "Feature",
      "geometry": {
        "type": "Polygon",
        "coordinates": [
          [
            [
              3.0743137676834507,
              50.61705625338506
            ],
            [
              3.067840356063312,
              50.61602339971959
            ],
            [
              3.066428394928299,
              50.611611659523874
            ],
            [
              3.0714891803890265,
              50.60823306636548
            ],
            [
              3.077961549158394,
              50.609266010857354
            ],
            [
              3.07937417520772,
              50.613677457672026
            ],
            [
              3.0743137676834507,
              50.61705625338506
            ]
          ]
        ]
      },
      "properties": {
        "uuid": "40b0e2c5-36eb-42b9-8eed-b4ab025a0f8c",
        "h3_index": "88194d29b9fffff",
        "city_code": "59350",
        "city_name": "Lille",
        "latitude": 50.61264477506361,
        "longitude": 3.0729013757345203,
        "manual_surge": 0,
        "available": true,
        "status": "active",
        "dept_code": "59",
        "id": "LIL-59-59350"
      }
    },
    {
      "type": "Feature",
      "geometry": {
        "type": "Polygon",
        "coordinates": [
          [
            [
              3.074903111426695,
              50.63807864374587
            ],
            [
              3.068427363456434,
              50.637046666528505
            ],
            [
              3.067014850082386,
              50.632635816878086
            ],
            [
              3.0720774191862454,
              50.629257237695285
            ],
            [
              3.0785521235443167,
              50.630289305665485
            ],
            [
              3.079965302300531,
              50.63469986205643
            ],
            [
              3.074903111426695,
              50.63807864374587
            ]
          ]
        ]
      },
      "properties": {
        "uuid": "56704036-a899-4f78-a5b6-9c5700de68a1",
        "h3_index": "88194d298dfffff",
        "city_code": "59350",
        "city_name": "Lille",
        "latitude": 50.63366805600881,
        "longitude": 3.0734901669310424,
        "manual_surge": 0,
        "available": true,
        "status": "active",
        "dept_code": "59",
        "id": "LIL-59-59350"
      }
    },
    {
      "type": "Feature",
      "geometry": {
        "type": "Polygon",
        "coordinates": [
          [
            [
              2.986190864772526,
              50.649035728708206
            ],
            [
              2.9797098194289067,
              50.64799881931422
            ],
            [
              2.9783026035844524,
              50.643585426717515
            ],
            [
              2.983375764669626,
              50.640209236194984
            ],
            [
              2.9898557659937794,
              50.64124623503945
            ],
            [
              2.9912636501420127,
              50.64565933494659
            ],
            [
              2.986190864772526,
              50.649035728708206
            ]
          ]
        ]
      },
      "properties": {
        "uuid": "29f2360e-6b02-4c65-9be6-96d52715daef",
        "h3_index": "88194d6685fffff",
        "city_code": "59350",
        "city_name": "Lille",
        "latitude": 50.64462259777621,
        "longitude": 2.9847832165992814,
        "manual_surge": 0,
        "available": true,
        "status": "active",
        "dept_code": "59",
        "id": "LIL-59-59350"
      }
    },
    {
      "type": "Feature",
      "geometry": {
        "type": "Polygon",
        "coordinates": [
          [
            [
              3.005068328851946,
              50.631116300792016
            ],
            [
              2.998590162525293,
              50.630079818134945
            ],
            [
              2.9971821992987886,
              50.625666319322
            ],
            [
              3.002251734967826,
              50.622289596060526
            ],
            [
              3.008728857925399,
              50.62332616850623
            ],
            [
              3.010137488472859,
              50.62773937441542
            ],
            [
              3.005068328851946,
              50.631116300792016
            ]
          ]
        ]
      },
      "properties": {
        "uuid": "602afe68-a824-4eff-b702-e4ec697279a6",
        "h3_index": "88194d6695fffff",
        "city_code": "59350",
        "city_name": "Lille",
        "latitude": 50.62670306366914,
        "longitude": 3.0036599337870804,
        "manual_surge": 0,
        "available": true,
        "status": "active",
        "dept_code": "59",
        "id": "LIL-59-59350"
      }
    },
    {
      "type": "Feature",
      "geometry": {
        "type": "Polygon",
        "coordinates": [
          [
            [
              3.1210381641058027,
              50.62868352300486
            ],
            [
              3.114565595113756,
              50.62765396109289
            ],
            [
              3.113150422619518,
              50.62324428495563
            ],
            [
              3.1182071552304667,
              50.619864464297244
            ],
            [
              3.1246786809615332,
              50.62089411765311
            ],
            [
              3.126094517232457,
              50.62530350021433
            ],
            [
              3.1210381641058027,
              50.62868352300486
            ]
          ]
        ]
      },
      "properties": {
        "uuid": "17b9c07e-c8fe-45d6-8ccc-682dad97f92e",
        "h3_index": "88194d29dbfffff",
        "city_code": "59350",
        "city_name": "Lille",
        "latitude": 50.62427410890282,
        "longitude": 3.1196225611742436,
        "manual_surge": 0,
        "available": true,
        "status": "active",
        "dept_code": "59",
        "id": "LIL-59-59350"
      }
    },
    {
      "type": "Feature",
      "geometry": {
        "type": "Polygon",
        "coordinates": [
          [
            [
              3.0354705825749746,
              50.61085263552176
            ],
            [
              3.0289960859038674,
              50.609817183192256
            ],
            [
              3.02758671092649,
              50.60540387219968
            ],
            [
              3.0326511665716134,
              50.60202630672463
            ],
            [
              3.0391246206102376,
              50.603061849353374
            ],
            [
              3.0405346615261872,
              50.60747486714865
            ],
            [
              3.0354705825749746,
              50.61085263552176
            ]
          ]
        ]
      },
      "properties": {
        "uuid": "33e548a2-fac1-4633-acfa-999c32fe9052",
        "h3_index": "8819499341fffff",
        "city_code": "59350",
        "city_name": "Lille",
        "latitude": 50.60643958627518,
        "longitude": 3.0340607764198055,
        "manual_surge": 0,
        "available": true,
        "status": "active",
        "dept_code": "59",
        "id": "LIL-59-59350"
      }
    },
    {
      "type": "Feature",
      "geometry": {
        "type": "Polygon",
        "coordinates": [
          [
            [
              3.048167678275596,
              50.650559708064286
            ],
            [
              3.0416892987768644,
              50.64952661199378
            ],
            [
              3.0402781557120604,
              50.6451153755362
            ],
            [
              3.0453447255604016,
              50.64173752817348
            ],
            [
              3.051822060989898,
              50.642770714568556
            ],
            [
              3.0532338705300313,
              50.64718165799248
            ],
            [
              3.048167678275596,
              50.650559708064286
            ]
          ]
        ]
      },
      "properties": {
        "uuid": "255a3ae9-2346-401d-8285-84b4090ad0ab",
        "h3_index": "88194d29e5fffff",
        "city_code": "59350",
        "city_name": "Lille",
        "latitude": 50.6461487334616,
        "longitude": 3.0467561035874424,
        "manual_surge": 0,
        "available": true,
        "status": "active",
        "dept_code": "59",
        "id": "LIL-59-59350"
      }
    },
    {
      "type": "Feature",
      "geometry": {
        "type": "Polygon",
        "coordinates": [
          [
            [
              3.086440256033058,
              50.635731235066174
            ],
            [
              3.079965302300531,
              50.63469986205643
            ],
            [
              3.0785521235443167,
              50.630289305665485
            ],
            [
              3.0836132334297384,
              50.626910415613814
            ],
            [
              3.0900871436374713,
              50.62794187954923
            ],
            [
              3.0915009873744084,
              50.63235214260145
            ],
            [
              3.086440256033058,
              50.635731235066174
            ]
          ]
        ]
      },
      "properties": {
        "uuid": "840dcf40-390f-4109-80ef-6f7d2af6a21f",
        "h3_index": "88194d2989fffff",
        "city_code": "59350",
        "city_name": "Lille",
        "latitude": 50.63132094061911,
        "longitude": 3.085026646326277,
        "manual_surge": 0,
        "available": true,
        "status": "active",
        "dept_code": "59",
        "id": "LIL-59-59350"
      }
    },
    {
      "type": "Feature",
      "geometry": {
        "type": "Polygon",
        "coordinates": [
          [
            [
              3.0129553384928274,
              50.636565094697744
            ],
            [
              3.0064769202017607,
              50.635529307386705
            ],
            [
              3.005068328851946,
              50.631116300792016
            ],
            [
              3.010137488472859,
              50.62773937441542
            ],
            [
              3.016614863198064,
              50.62877525160585
            ],
            [
              3.0180241217580432,
              50.63318796528414
            ],
            [
              3.0129553384928274,
              50.636565094697744
            ]
          ]
        ]
      },
      "properties": {
        "uuid": "4d82a03d-764c-4dd9-bc96-aae06e221ad0",
        "h3_index": "88194d669dfffff",
        "city_code": "59350",
        "city_name": "Lille",
        "latitude": 50.632152349826725,
        "longitude": 3.011546315315567,
        "manual_surge": 0,
        "available": true,
        "status": "active",
        "dept_code": "59",
        "id": "LIL-59-59350"
      }
    },
    {
      "type": "Feature",
      "geometry": {
        "type": "Polygon",
        "coordinates": [
          [
            [
              3.1095077826464097,
              50.63103367410811
            ],
            [
              3.1030344184034258,
              50.63000350875109
            ],
            [
              3.101619910087145,
              50.62559353911681
            ],
            [
              3.1066781017257044,
              50.6222140283274
            ],
            [
              3.113150422619518,
              50.62324428495563
            ],
            [
              3.114565595113756,
              50.62765396109289
            ],
            [
              3.1095077826464097,
              50.63103367410811
            ]
          ]
        ]
      },
      "properties": {
        "uuid": "f62e73c9-c6bb-4622-8a04-c6e074746a1a",
        "h3_index": "88194d29d1fffff",
        "city_code": "59350",
        "city_name": "Lille",
        "latitude": 50.62662396647865,
        "longitude": 3.10809284372172,
        "manual_surge": 0,
        "available": true,
        "status": "active",
        "dept_code": "59",
        "id": "LIL-59-59350"
      }
    },
    {
      "type": "Feature",
      "geometry": {
        "type": "Polygon",
        "coordinates": [
          [
            [
              2.9977439040542797,
              50.64669563827365
            ],
            [
              2.9912636501420127,
              50.64565933494659
            ],
            [
              2.9898557659937794,
              50.64124623503945
            ],
            [
              2.9949274677454105,
              50.63786973121952
            ],
            [
              3.001406677723597,
              50.638906124170326
            ],
            [
              3.0028152297740394,
              50.64331893130798
            ],
            [
              2.9977439040542797,
              50.64669563827365
            ]
          ]
        ]
      },
      "properties": {
        "uuid": "eb7c2527-1a4e-4da1-ac82-3638370a372e",
        "h3_index": "88194d6681fffff",
        "city_code": "59350",
        "city_name": "Lille",
        "latitude": 50.64228280006213,
        "longitude": 2.99633558774802,
        "manual_surge": 0,
        "available": true,
        "status": "active",
        "dept_code": "59",
        "id": "LIL-59-59350"
      }
    },
    {
      "type": "Feature",
      "geometry": {
        "type": "Polygon",
        "coordinates": [
          [
            [
              2.9898557659937794,
              50.64124623503945
            ],
            [
              2.983375764669626,
              50.640209236194984
            ],
            [
              2.981968508944216,
              50.63579564400691
            ],
            [
              2.9870405864198926,
              50.63241934341068
            ],
            [
              2.993519544007121,
              50.63345643178819
            ],
            [
              2.9949274677454105,
              50.63786973121952
            ],
            [
              2.9898557659937794,
              50.64124623503945
            ]
          ]
        ]
      },
      "properties": {
        "uuid": "19ca6925-86ef-42a6-b65b-cb5dc0b31705",
        "h3_index": "88194d6687fffff",
        "city_code": "59350",
        "city_name": "Lille",
        "latitude": 50.636832904513376,
        "longitude": 2.9884480780995286,
        "manual_surge": 0,
        "available": true,
        "status": "active",
        "dept_code": "59",
        "id": "LIL-59-59350"
      }
    },
    {
      "type": "Feature",
      "geometry": {
        "type": "Polygon",
        "coordinates": [
          [
            [
              2.9904149871471954,
              50.66227373718508
            ],
            [
              2.9839326445187355,
              50.661237612857875
            ],
            [
              2.9825248398566857,
              50.65682491242675
            ],
            [
              2.9875987092286773,
              50.653448628948574
            ],
            [
              2.994080007357681,
              50.654484842734405
            ],
            [
              2.995488480503873,
              50.65889725053041
            ],
            [
              2.9904149871471954,
              50.66227373718508
            ]
          ]
        ]
      },
      "properties": {
        "uuid": "01a6a31c-352c-44fc-952e-f59b6658288f",
        "h3_index": "88194d66ebfffff",
        "city_code": "59350",
        "city_name": "Lille",
        "latitude": 50.65786129845498,
        "longitude": 2.989006750007111,
        "manual_surge": 0,
        "available": true,
        "status": "active",
        "dept_code": "59",
        "id": "LIL-59-59350"
      }
    },
    {
      "type": "Feature",
      "geometry": {
        "type": "Polygon",
        "coordinates": [
          [
            [
              3.105864025831754,
              50.63882275632108
            ],
            [
              3.099389617956352,
              50.6377926821532
            ],
            [
              3.097975146531026,
              50.633382911657726
            ],
            [
              3.1030344184034258,
              50.63000350875109
            ],
            [
              3.1095077826464097,
              50.63103367410811
            ],
            [
              3.110922918539168,
              50.63544315117344
            ],
            [
              3.105864025831754,
              50.63882275632108
            ]
          ]
        ]
      },
      "properties": {
        "uuid": "a1689068-561b-431f-9f9d-c18babb79483",
        "h3_index": "88194d29ddfffff",
        "city_code": "59350",
        "city_name": "Lille",
        "latitude": 50.63441324783328,
        "longitude": 3.1044491236384886,
        "manual_surge": 0,
        "available": true,
        "status": "active",
        "dept_code": "59",
        "id": "LIL-59-59350"
      }
    },
    {
      "type": "Feature",
      "geometry": {
        "type": "Polygon",
        "coordinates": [
          [
            [
              3.0785521235443167,
              50.630289305665485
            ],
            [
              3.0720774191862454,
              50.629257237695285
            ],
            [
              3.070664868152935,
              50.62484618884767
            ],
            [
              3.0757263562751485,
              50.62146750128745
            ],
            [
              3.0822000173040234,
              50.62249966009263
            ],
            [
              3.0836132334297384,
              50.626910415613814
            ],
            [
              3.0785521235443167,
              50.630289305665485
            ]
          ]
        ]
      },
      "properties": {
        "uuid": "1bf56a81-a86d-4004-b6ec-b8a66ed125af",
        "h3_index": "88194d2981fffff",
        "city_code": "59350",
        "city_name": "Lille",
        "latitude": 50.62587851872837,
        "longitude": 3.0771391415489897,
        "manual_surge": 0,
        "available": true,
        "status": "active",
        "dept_code": "59",
        "id": "LIL-59-59350"
      }
    },
    {
      "type": "Feature",
      "geometry": {
        "type": "Polygon",
        "coordinates": [
          [
            [
              2.9783026035844524,
              50.643585426717515
            ],
            [
              2.971821811255892,
              50.64254782172553
            ],
            [
              2.9704152239447787,
              50.63813393686061
            ],
            [
              2.975488760437761,
              50.634757949655146
            ],
            [
              2.981968508944216,
              50.63579564400691
            ],
            [
              2.983375764669626,
              50.640209236194984
            ],
            [
              2.9783026035844524,
              50.643585426717515
            ]
          ]
        ]
      },
      "properties": {
        "uuid": "b0072cbd-7f3f-4122-9729-6a3985ab9e13",
        "h3_index": "88194d66abfffff",
        "city_code": "59350",
        "city_name": "Lille",
        "latitude": 50.6391718034837,
        "longitude": 2.976895583933837,
        "manual_surge": 0,
        "available": true,
        "status": "active",
        "dept_code": "59",
        "id": "LIL-59-59350"
      }
    }
  ]
}