{
  "type": "FeatureCollection",
  "features": [
    {
      "type": "Feature",
      "geometry": {
        "type": "Polygon",
        "coordinates": [
          [
            [
              4.820382697251409,
              45.723002856427755
            ],
            [
              4.8189461352264615,
              45.71837088622838
            ],
            [
              4.823882125689347,
              45.715505070340946
            ],
            [
              4.830255076349993,
              45.71727110903851
            ],
            [
              4.831692406511923,
              45.72190317428399
            ],
            [
              4.826756017892454,
              45.724769105804924
            ],
            [
              4.820382697251409,
              45.723002856427755
            ]
          ]
        ]
      },
      "properties": {
        "uuid": "436ba441-45c5-4cd4-aca5-f2a44b8a75f7",
        "h3_index": "881f902e55fffff",
        "city_code": "69123",
        "city_name": "Lyon",
        "latitude": 45.72013718240578,
        "longitude": 4.825318979134907,
        "manual_surge": 0,
        "available": true,
        "status": "active",
        "dept_code": "69",
        "id": "LYO-69-69123"
      }
    },
    {
      "type": "Feature",
      "geometry": {
        "type": "Polygon",
        "coordinates": [
          [
            [
              4.822004083217821,
              45.765779699570416
            ],
            [
              4.820566621387215,
              45.761149524361066
            ],
            [
              4.82550531376306,
              45.75828564281089
            ],
            [
              4.831881866538376,
              45.76005182085675
            ],
            [
              4.833320097346219,
              45.764682090897566
            ],
            [
              4.828381006417764,
              45.76754608808021
            ],
            [
              4.822004083217821,
              45.765779699570416
            ]
          ]
        ]
      },
      "properties": {
        "uuid": "081ee86b-f098-41bb-b5f9-7ad31768d8be",
        "h3_index": "881f902091fffff",
        "city_code": "69123",
        "city_name": "Lyon",
        "latitude": 45.7629159600191,
        "longitude": 4.826943067326052,
        "manual_surge": 0,
        "available": true,
        "status": "active",
        "dept_code": "69",
        "id": "LYO-69-69123"
      }
    },
    {
      "type": "Feature",
      "geometry": {
        "type": "Polygon",
        "coordinates": [
          [
            [
              4.8176922540918525,
              45.751888606703574
            ],
            [
              4.816255348558921,
              45.74725786437092
            ],
            [
              4.821193165905273,
              45.74439355688101
            ],
            [
              4.827568287318298,
              45.74615987613939
            ],
            [
              4.829005961558518,
              45.7507907134199
            ],
            [
              4.824067745694634,
              45.75365513651328
            ],
            [
              4.8176922540918525,
              45.751888606703574
            ]
          ]
        ]
      },
      "properties": {
        "uuid": "e7875291-478d-4594-97fb-b5bd48453d4d",
        "h3_index": "881f9020bbfffff",
        "city_code": "69123",
        "city_name": "Lyon",
        "latitude": 45.74902444118407,
        "longitude": 4.822630363086742,
        "manual_surge": 0,
        "available": true,
        "status": "active",
        "dept_code": "69",
        "id": "LYO-69-69123"
      }
    },
    {
      "type": "Feature",
      "geometry": {
        "type": "Polygon",
        "coordinates": [
          [
            [
              4.791563493245154,
              45.76157340873487
            ],
            [
              4.790128231841862,
              45.756943187710775
            ],
            [
              4.795066679997506,
              45.75408073587267
            ],
            [
              4.801440788835012,
              45.75584838967923
            ],
            [
              4.802876819157293,
              45.76047870592882
            ],
            [
              4.797937971739215,
              45.76334127316549
            ],
            [
              4.791563493245154,
              45.76157340873487
            ]
          ]
        ]
      },
      "properties": {
        "uuid": "5b195b90-d347-4faa-83f5-d23168040d65",
        "h3_index": "881f902081fffff",
        "city_code": "69123",
        "city_name": "Lyon",
        "latitude": 45.75871109900083,
        "longitude": 4.796502233242105,
        "manual_surge": 0,
        "available": true,
        "status": "active",
        "dept_code": "69",
        "id": "LYO-69-69123"
      }
    },
    {
      "type": "Feature",
      "geometry": {
        "type": "Polygon",
        "coordinates": [
          [
            [
              4.869945219262343,
              45.73249272984471
            ],
            [
              4.868505027843938,
              45.72786094693151
            ],
            [
              4.873441577607631,
              45.724992928678155
            ],
            [
              4.879818715832924,
              45.72675657734472
            ],
            [
              4.8812596755324575,
              45.73138845465015
            ],
            [
              4.876322728742067,
              45.73425658891593
            ],
            [
              4.869945219262343,
              45.73249272984471
            ]
          ]
        ]
      },
      "properties": {
        "uuid": "18b30a57-bbe0-4cb4-98dc-1c8d4f435a77",
        "h3_index": "881f902523fffff",
        "city_code": "69123",
        "city_name": "Lyon",
        "latitude": 45.729624853294176,
        "longitude": 4.874882060288104,
        "manual_surge": 0,
        "available": true,
        "status": "active",
        "dept_code": "69",
        "id": "LYO-69-69123"
      }
    },
    {
      "type": "Feature",
      "geometry": {
        "type": "Polygon",
        "coordinates": [
          [
            [
              4.870769650785811,
              45.75388488099285
            ],
            [
              4.869329007597867,
              45.74925399621151
            ],
            [
              4.874266908127857,
              45.74638694433006
            ],
            [
              4.88064584908591,
              45.74815066123709
            ],
            [
              4.882087260974963,
              45.75278164030333
            ],
            [
              4.877148963221345,
              45.75564880819683
            ],
            [
              4.870769650785811,
              45.75388488099285
            ]
          ]
        ]
      },
      "properties": {
        "uuid": "4f16a79b-aed6-4b9a-a42f-882bbc040ec9",
        "h3_index": "881f902501fffff",
        "city_code": "69123",
        "city_name": "Lyon",
        "latitude": 45.751017970880994,
        "longitude": 4.875707842733529,
        "manual_surge": 0,
        "available": true,
        "status": "active",
        "dept_code": "69",
        "id": "LYO-69-69123"
      }
    },
    {
      "type": "Feature",
      "geometry": {
        "type": "Polygon",
        "coordinates": [
          [
            [
              4.788059723621597,
              45.769065208772254
            ],
            [
              4.78662456890721,
              45.76443531886326
            ],
            [
              4.791563493245154,
              45.76157340873487
            ],
            [
              4.797937971739215,
              45.76334127316549
            ],
            [
              4.799373895522916,
              45.767971258308904
            ],
            [
              4.794434571759351,
              45.770833283806446
            ],
            [
              4.788059723621597,
              45.769065208772254
            ]
          ]
        ]
      },
      "properties": {
        "uuid": "77355173-bcb6-4469-97a5-6180c1c95056",
        "h3_index": "881f902089fffff",
        "city_code": "69123",
        "city_name": "Lyon",
        "latitude": 45.766203440786015,
        "longitude": 4.792998939872974,
        "manual_surge": 0,
        "available": true,
        "status": "active",
        "dept_code": "69",
        "id": "LYO-69-69123"
      }
    },
    {
      "type": "Feature",
      "geometry": {
        "type": "Polygon",
        "coordinates": [
          [
            [
              4.832506026723574,
              45.74329491158783
            ],
            [
              4.831068246377538,
              45.73866374342982
            ],
            [
              4.836005509377536,
              45.735798237505136
            ],
            [
              4.842380950803356,
              45.73756378403711
            ],
            [
              4.843819499675299,
              45.742195046999626
            ],
            [
              4.838881838611813,
              45.745060668644776
            ],
            [
              4.832506026723574,
              45.74329491158783
            ]
          ]
        ]
      },
      "properties": {
        "uuid": "0eb3bdd6-7048-4994-8df4-48dbdb69368d",
        "h3_index": "881f902565fffff",
        "city_code": "69123",
        "city_name": "Lyon",
        "latitude": 45.74042954754763,
        "longitude": 4.837443581239573,
        "manual_surge": 0,
        "available": true,
        "status": "active",
        "dept_code": "69",
        "id": "LYO-69-69123"
      }
    },
    {
      "type": "Feature",
      "geometry": {
        "type": "Polygon",
        "coordinates": [
          [
            [
              4.84813625986063,
              45.75608770169421
            ],
            [
              4.846697154169822,
              45.75145700588596
            ],
            [
              4.851635213168563,
              45.748591268462064
            ],
            [
              4.8580127756813365,
              45.750356111028594
            ],
            [
              4.859452650136441,
              45.75498690139058
            ],
            [
              4.854514193330855,
              45.75785275465148
            ],
            [
              4.84813625986063,
              45.75608770169421
            ]
          ]
        ]
      },
      "properties": {
        "uuid": "1a5cbdcc-b4ec-428a-ab2c-e641d4327f22",
        "h3_index": "881f90256bfffff",
        "city_code": "69123",
        "city_name": "Lyon",
        "latitude": 45.75322210613553,
        "longitude": 4.853074610398507,
        "manual_surge": 0,
        "available": true,
        "status": "active",
        "dept_code": "69",
        "id": "LYO-69-69123"
      }
    },
    {
      "type": "Feature",
      "geometry": {
        "type": "Polygon",
        "coordinates": [
          [
            [
              4.831692406511923,
              45.72190317428399
            ],
            [
              4.830255076349993,
              45.71727110903851
            ],
            [
              4.8351909888337525,
              45.71440463634433
            ],
            [
              4.841564629361499,
              45.716170113193634
            ],
            [
              4.843002727629404,
              45.720802273350806
            ],
            [
              4.838066417279865,
              45.72366886176613
            ],
            [
              4.831692406511923,
              45.72190317428399
            ]
          ]
        ]
      },
      "properties": {
        "uuid": "802b3ad5-8706-4a05-b306-e7c8e81a0a88",
        "h3_index": "881f902e57fffff",
        "city_code": "69123",
        "city_name": "Lyon",
        "latitude": 45.71903684340742,
        "longitude": 4.836628610355877,
        "manual_surge": 0,
        "available": true,
        "status": "active",
        "dept_code": "69",
        "id": "LYO-69-69123"
      }
    },
    {
      "type": "Feature",
      "geometry": {
        "type": "Polygon",
        "coordinates": [
          [
            [
              4.852454691116495,
              45.76997865388595
            ],
            [
              4.851015028299837,
              45.765348525751946
            ],
            [
              4.855953961999722,
              45.76248321395214
            ],
            [
              4.862332956374027,
              45.764247914439395
            ],
            [
              4.863773388224781,
              45.7688781370107
            ],
            [
              4.858834056683519,
              45.77174356467656
            ],
            [
              4.852454691116495,
              45.76997865388595
            ]
          ]
        ]
      },
      "properties": {
        "uuid": "9a8a453c-96bd-490e-9199-5a465d7e5207",
        "h3_index": "881f902541fffff",
        "city_code": "69123",
        "city_name": "Lyon",
        "latitude": 45.767113483979756,
        "longitude": 4.857393916439224,
        "manual_surge": 0,
        "available": true,
        "status": "active",
        "dept_code": "69",
        "id": "LYO-69-69123"
      }
    },
    {
      "type": "Feature",
      "geometry": {
        "type": "Polygon",
        "coordinates": [
          [
            [
              4.800178952572022,
              45.789350764427425
            ],
            [
              4.798742579310629,
              45.78472167810666
            ],
            [
              4.803682778934175,
              45.781860079034665
            ],
            [
              4.810059751168829,
              45.783627450845756
            ],
            [
              4.811496893889714,
              45.78825663215903
            ],
            [
              4.806556294932659,
              45.79111834668787
            ],
            [
              4.800178952572022,
              45.789350764427425
            ]
          ]
        ]
      },
      "properties": {
        "uuid": "c0ef7537-9991-4d66-b46c-b24cd9093dee",
        "h3_index": "881f9020d9fffff",
        "city_code": "69123",
        "city_name": "Lyon",
        "latitude": 45.7864893075161,
        "longitude": 4.805119444204927,
        "manual_surge": 0,
        "available": true,
        "status": "active",
        "dept_code": "69",
        "id": "LYO-69-69123"
      }
    },
    {
      "type": "Feature",
      "geometry": {
        "type": "Polygon",
        "coordinates": [
          [
            [
              4.885583669780063,
              45.745282952079535
            ],
            [
              4.884142152471904,
              45.7406516420754
            ],
            [
              4.889079496160202,
              45.73778339173908
            ],
            [
              4.895458753942159,
              45.73954633529732
            ],
            [
              4.8969010397688875,
              45.74417773944289
            ],
            [
              4.891963299311628,
              45.74704610590794
            ],
            [
              4.885583669780063,
              45.745282952079535
            ]
          ]
        ]
      },
      "properties": {
        "uuid": "904f2b5f-7288-478b-abb8-3eed5c3dadf4",
        "h3_index": "881f902539fffff",
        "city_code": "69123",
        "city_name": "Lyon",
        "latitude": 45.742414843426786,
        "longitude": 4.890521304753094,
        "manual_surge": 0,
        "available": true,
        "status": "active",
        "dept_code": "69",
        "id": "LYO-69-69123"
      }
    },
    {
      "type": "Feature",
      "geometry": {
        "type": "Polygon",
        "coordinates": [
          [
            [
              4.8098809180527,
              45.74549098307747
            ],
            [
              4.80844467485136,
              45.74086000493154
            ],
            [
              4.8133820935522955,
              45.73799581298676
            ],
            [
              4.819756154116154,
              45.73976248366187
            ],
            [
              4.821193165905273,
              45.74439355688101
            ],
            [
              4.816255348558921,
              45.74725786437092
            ],
            [
              4.8098809180527,
              45.74549098307747
            ]
          ]
        ]
      },
      "properties": {
        "uuid": "22b7084a-6d03-4bd6-ab68-35891f32ec02",
        "h3_index": "881f9020b1fffff",
        "city_code": "69123",
        "city_name": "Lyon",
        "latitude": 45.74262693311274,
        "longitude": 4.8148186283904275,
        "manual_surge": 0,
        "available": true,
        "status": "active",
        "dept_code": "69",
        "id": "LYO-69-69123"
      }
    },
    {
      "type": "Feature",
      "geometry": {
        "type": "Polygon",
        "coordinates": [
          [
            [
              4.843819499675299,
              45.742195046999626
            ],
            [
              4.842380950803356,
              45.73756378403711
            ],
            [
              4.847318135351997,
              45.73469762107462
            ],
            [
              4.85369426656124,
              45.73646260528572
            ],
            [
              4.855133583927844,
              45.74109396291836
            ],
            [
              4.8501960016068955,
              45.74396024168892
            ],
            [
              4.843819499675299,
              45.742195046999626
            ]
          ]
        ]
      },
      "properties": {
        "uuid": "b3bc1e2f-f40c-4f0b-8e0a-e2df347e8c53",
        "h3_index": "881f902567fffff",
        "city_code": "69123",
        "city_name": "Lyon",
        "latitude": 45.73932902587384,
        "longitude": 4.848756975679417,
        "manual_surge": 0,
        "available": true,
        "status": "active",
        "dept_code": "69",
        "id": "LYO-69-69123"
      }
    },
    {
      "type": "Feature",
      "geometry": {
        "type": "Polygon",
        "coordinates": [
          [
            [
              4.792366299284345,
              45.782953744027736
            ],
            [
              4.7909305887761,
              45.778324421412194
            ],
            [
              4.7958703889383685,
              45.775462937738496
            ],
            [
              4.802246299086313,
              45.7772306613012
            ],
            [
              4.803682778934175,
              45.781860079034665
            ],
            [
              4.798742579310629,
              45.78472167810666
            ],
            [
              4.792366299284345,
              45.782953744027736
            ]
          ]
        ]
      },
      "properties": {
        "uuid": "beeb4089-7bda-40fc-be64-6e4ec7d13793",
        "h3_index": "881f9020ddfffff",
        "city_code": "69123",
        "city_name": "Lyon",
        "latitude": 45.780092402524474,
        "longitude": 4.797306391444099,
        "manual_surge": 0,
        "available": true,
        "status": "active",
        "dept_code": "69",
        "id": "LYO-69-69123"
      }
    },
    {
      "type": "Feature",
      "geometry": {
        "type": "Polygon",
        "coordinates": [
          [
            [
              4.795066679997506,
              45.75408073587267
            ],
            [
              4.79363131197137,
              45.749450183838746
            ],
            [
              4.798569283997895,
              45.74658719037574
            ],
            [
              4.804943023165961,
              45.74835463353783
            ],
            [
              4.8063791599607955,
              45.75298528078827
            ],
            [
              4.801440788835012,
              45.75584838967923
            ],
            [
              4.795066679997506,
              45.75408073587267
            ]
          ]
        ]
      },
      "properties": {
        "uuid": "446aa684-904f-4c87-8038-46757ffaf475",
        "h3_index": "881f902087fffff",
        "city_code": "69123",
        "city_name": "Lyon",
        "latitude": 45.75121788447563,
        "longitude": 4.80000494379321,
        "manual_surge": 0,
        "available": true,
        "status": "active",
        "dept_code": "69",
        "id": "LYO-69-69123"
      }
    },
    {
      "type": "Feature",
      "geometry": {
        "type": "Polygon",
        "coordinates": [
          [
            [
              4.836005509377536,
              45.735798237505136
            ],
            [
              4.834567622991629,
              45.73116673857515
            ],
            [
              4.8395044096397175,
              45.72830069136253
            ],
            [
              4.845879480590588,
              45.73006602734919
            ],
            [
              4.847318135351997,
              45.73469762107462
            ],
            [
              4.842380950803356,
              45.73756378403711
            ],
            [
              4.836005509377536,
              45.735798237505136
            ]
          ]
        ]
      },
      "properties": {
        "uuid": "5da4bcc6-dd2a-437a-b352-50e6690372a4",
        "h3_index": "881f902e5bfffff",
        "city_code": "69123",
        "city_name": "Lyon",
        "latitude": 45.73293233213881,
        "longitude": 4.840942587469538,
        "manual_surge": 0,
        "available": true,
        "status": "active",
        "dept_code": "69",
        "id": "LYO-69-69123"
      }
    },
    {
      "type": "Feature",
      "geometry": {
        "type": "Polygon",
        "coordinates": [
          [
            [
              4.874266908127857,
              45.74638694433006
            ],
            [
              4.8728261593701845,
              45.741755728601824
            ],
            [
              4.877763583003582,
              45.738888135485546
            ],
            [
              4.884142152471904,
              45.7406516420754
            ],
            [
              4.885583669780063,
              45.745282952079535
            ],
            [
              4.88064584908591,
              45.74815066123709
            ],
            [
              4.874266908127857,
              45.74638694433006
            ]
          ]
        ]
      },
      "properties": {
        "uuid": "19c0e3ef-721e-48d2-8a7a-9c10d37a6966",
        "h3_index": "881f902507fffff",
        "city_code": "69123",
        "city_name": "Lyon",
        "latitude": 45.74351949294521,
        "longitude": 4.879204623106834,
        "manual_surge": 0,
        "available": true,
        "status": "active",
        "dept_code": "69",
        "id": "LYO-69-69123"
      }
    },
    {
      "type": "Feature",
      "geometry": {
        "type": "Polygon",
        "coordinates": [
          [
            [
              4.824693495166898,
              45.73689763474312
            ],
            [
              4.8232563771875725,
              45.73226623074298
            ],
            [
              4.828193241996037,
              45.729400840480544
            ],
            [
              4.834567622991629,
              45.73116673857515
            ],
            [
              4.836005509377536,
              45.735798237505136
            ],
            [
              4.831068246377538,
              45.73866374342982
            ],
            [
              4.824693495166898,
              45.73689763474312
            ]
          ]
        ]
      },
      "properties": {
        "uuid": "3b0a5bc4-c2c7-4319-bd44-5cc167d9b567",
        "h3_index": "881f902e59fffff",
        "city_code": "69123",
        "city_name": "Lyon",
        "latitude": 45.73403238637478,
        "longitude": 4.829630651479712,
        "manual_surge": 0,
        "available": true,
        "status": "active",
        "dept_code": "69",
        "id": "LYO-69-69123"
      }
    },
    {
      "type": "Feature",
      "geometry": {
        "type": "Polygon",
        "coordinates": [
          [
            [
              4.82550531376306,
              45.75828564281089
            ],
            [
              4.824067745694634,
              45.75365513651328
            ],
            [
              4.829005961558518,
              45.7507907134199
            ],
            [
              4.8353821438966085,
              45.7525566809815
            ],
            [
              4.83682048079177,
              45.757187282101604
            ],
            [
              4.831881866538376,
              45.76005182085675
            ],
            [
              4.82550531376306,
              45.75828564281089
            ]
          ]
        ]
      },
      "properties": {
        "uuid": "9fbcdba5-cadf-41f3-9ee6-9bc65b7fd368",
        "h3_index": "881f902097fffff",
        "city_code": "69123",
        "city_name": "Lyon",
        "latitude": 45.75542136167827,
        "longitude": 4.8304438212871785,
        "manual_surge": 0,
        "available": true,
        "status": "active",
        "dept_code": "69",
        "id": "LYO-69-69123"
      }
    },
    {
      "type": "Feature",
      "geometry": {
        "type": "Polygon",
        "coordinates": [
          [
            [
              4.827130299802225,
              45.80104797188551
            ],
            [
              4.825691830722533,
              45.79641926407739
            ],
            [
              4.830632750910651,
              45.79355677651835
            ],
            [
              4.837012538980672,
              45.79532288112493
            ],
            [
              4.838451777728482,
              45.79995168354033
            ],
            [
              4.83351045875449,
              45.80281428676104
            ],
            [
              4.827130299802225,
              45.80104797188551
            ]
          ]
        ]
      },
      "properties": {
        "uuid": "feba37e1-c810-4968-83c7-7bf303479470",
        "h3_index": "881f902763fffff",
        "city_code": "69123",
        "city_name": "Lyon",
        "latitude": 45.79818562641987,
        "longitude": 4.832071511962774,
        "manual_surge": 0,
        "available": true,
        "status": "active",
        "dept_code": "69",
        "id": "LYO-69-69123"
      }
    },
    {
      "type": "Feature",
      "geometry": {
        "type": "Polygon",
        "coordinates": [
          [
            [
              4.858631372257861,
              45.733595785253726
            ],
            [
              4.857191949152202,
              45.728964096867195
            ],
            [
              4.862128578277983,
              45.726096735658984
            ],
            [
              4.868505027843938,
              45.72786094693151
            ],
            [
              4.869945219262343,
              45.73249272984471
            ],
            [
              4.865008192818465,
              45.735360206977866
            ],
            [
              4.858631372257861,
              45.733595785253726
            ]
          ]
        ]
      },
      "properties": {
        "uuid": "f3ed84b6-22ac-469f-bd5c-c7c5cd1f9235",
        "h3_index": "881f902521fffff",
        "city_code": "69123",
        "city_name": "Lyon",
        "latitude": 45.73072856579618,
        "longitude": 4.863568292706383,
        "manual_surge": 0,
        "available": true,
        "status": "active",
        "dept_code": "69",
        "id": "LYO-69-69123"
      }
    },
    {
      "type": "Feature",
      "geometry": {
        "type": "Polygon",
        "coordinates": [
          [
            [
              4.833320097346219,
              45.764682090897566
            ],
            [
              4.831881866538376,
              45.76005182085675
            ],
            [
              4.83682048079177,
              45.757187282101604
            ],
            [
              4.8431977241306425,
              45.75895289768629
            ],
            [
              4.844636723884614,
              45.763583262424234
            ],
            [
              4.839697711369885,
              45.76644791689947
            ],
            [
              4.833320097346219,
              45.764682090897566
            ]
          ]
        ]
      },
      "properties": {
        "uuid": "97f195ca-b940-483e-a22e-6d62d1f47b6f",
        "h3_index": "881f902093fffff",
        "city_code": "69123",
        "city_name": "Lyon",
        "latitude": 45.761817694093516,
        "longitude": 4.838259003271496,
        "manual_surge": 0,
        "available": true,
        "status": "active",
        "dept_code": "69",
        "id": "LYO-69-69123"
      }
    },
    {
      "type": "Feature",
      "geometry": {
        "type": "Polygon",
        "coordinates": [
          [
            [
              4.8158094353035334,
              45.80214303972059
            ],
            [
              4.814371735922969,
              45.79751442665409
            ],
            [
              4.8193127340855995,
              45.79465259660989
            ],
            [
              4.825691830722533,
              45.79641926407739
            ],
            [
              4.827130299802225,
              45.80104797188551
            ],
            [
              4.82218890256213,
              45.80390991750367
            ],
            [
              4.8158094353035334,
              45.80214303972059
            ]
          ]
        ]
      },
      "properties": {
        "uuid": "062a8579-303c-44f9-a2d6-cd230f3fa12c",
        "h3_index": "881f902761fffff",
        "city_code": "69123",
        "city_name": "Lyon",
        "latitude": 45.79928135181753,
        "longitude": 4.820750725499129,
        "manual_surge": 0,
        "available": true,
        "status": "active",
        "dept_code": "69",
        "id": "LYO-69-69123"
      }
    },
    {
      "type": "Feature",
      "geometry": {
        "type": "Polygon",
        "coordinates": [
          [
            [
              4.866448278648326,
              45.73999165914618
            ],
            [
              4.865008192818465,
              45.735360206977866
            ],
            [
              4.869945219262343,
              45.73249272984471
            ],
            [
              4.876322728742067,
              45.73425658891593
            ],
            [
              4.877763583003582,
              45.738888135485546
            ],
            [
              4.8728261593701845,
              45.741755728601824
            ],
            [
              4.866448278648326,
              45.73999165914618
            ]
          ]
        ]
      },
      "properties": {
        "uuid": "50c6daba-8dac-4e5d-84d7-b954ada5c153",
        "h3_index": "881f90252bfffff",
        "city_code": "69123",
        "city_name": "Lyon",
        "latitude": 45.73712432375409,
        "longitude": 4.871385596426401,
        "manual_surge": 0,
        "available": true,
        "status": "active",
        "dept_code": "69",
        "id": "LYO-69-69123"
      }
    },
    {
      "type": "Feature",
      "geometry": {
        "type": "Polygon",
        "coordinates": [
          [
            [
              4.855133583927844,
              45.74109396291836
            ],
            [
              4.85369426656124,
              45.73646260528572
            ],
            [
              4.858631372257861,
              45.733595785253726
            ],
            [
              4.865008192818465,
              45.735360206977866
            ],
            [
              4.866448278648326,
              45.73999165914618
            ],
            [
              4.861510775470735,
              45.742858595073834
            ],
            [
              4.855133583927844,
              45.74109396291836
            ]
          ]
        ]
      },
      "properties": {
        "uuid": "7c8b9f55-346e-4f24-b5eb-4f59b83204bc",
        "h3_index": "881f902529fffff",
        "city_code": "69123",
        "city_name": "Lyon",
        "latitude": 45.73822728467521,
        "longitude": 4.860070981019331,
        "manual_surge": 0,
        "available": true,
        "status": "active",
        "dept_code": "69",
        "id": "LYO-69-69123"
      }
    },
    {
      "type": "Feature",
      "geometry": {
        "type": "Polygon",
        "coordinates": [
          [
            [
              4.859452650136441,
              45.75498690139058
            ],
            [
              4.8580127756813365,
              45.750356111028594
            ],
            [
              4.862950755646169,
              45.74748971639173
            ],
            [
              4.869329007597867,
              45.74925399621151
            ],
            [
              4.870769650785811,
              45.75388488099285
            ],
            [
              4.865831273305652,
              45.756751391554246
            ],
            [
              4.859452650136441,
              45.75498690139058
            ]
          ]
        ]
      },
      "properties": {
        "uuid": "453638ac-66d7-46bb-85d4-9e9ab33329dd",
        "h3_index": "881f90250dfffff",
        "city_code": "69123",
        "city_name": "Lyon",
        "latitude": 45.752120648571136,
        "longitude": 4.864390921579782,
        "manual_surge": 0,
        "available": true,
        "status": "active",
        "dept_code": "69",
        "id": "LYO-69-69123"
      }
    },
    {
      "type": "Feature",
      "geometry": {
        "type": "Polygon",
        "coordinates": [
          [
            [
              4.845454400632581,
              45.78496691510933
            ],
            [
              4.844014949718282,
              45.78033744962441
            ],
            [
              4.848954837367292,
              45.77747322100172
            ],
            [
              4.855334574114599,
              45.77923834207543
            ],
            [
              4.856774794364353,
              45.78386790201552
            ],
            [
              4.851834508547712,
              45.786732246445894
            ],
            [
              4.845454400632581,
              45.78496691510933
            ]
          ]
        ]
      },
      "properties": {
        "uuid": "44c5fcd0-49fa-4e38-95b7-d8d71ded246a",
        "h3_index": "881f902723fffff",
        "city_code": "69123",
        "city_name": "Lyon",
        "latitude": 45.78210282845636,
        "longitude": 4.85039458004888,
        "manual_surge": 0,
        "available": true,
        "status": "active",
        "dept_code": "69",
        "id": "LYO-69-69123"
      }
    },
    {
      "type": "Feature",
      "geometry": {
        "type": "Polygon",
        "coordinates": [
          [
            [
              4.7837548150339,
              45.755174972155665
            ],
            [
              4.78232021580689,
              45.75054451547254
            ],
            [
              4.787258264572633,
              45.74768217897461
            ],
            [
              4.79363131197137,
              45.749450183838746
            ],
            [
              4.795066679997506,
              45.75408073587267
            ],
            [
              4.790128231841862,
              45.756943187710775
            ],
            [
              4.7837548150339,
              45.755174972155665
            ]
          ]
        ]
      },
      "properties": {
        "uuid": "4d17c0f2-26cb-4bad-b780-a15a3e749a96",
        "h3_index": "881f902085fffff",
        "city_code": "69123",
        "city_name": "Lyon",
        "latitude": 45.75231277777144,
        "longitude": 4.78869315562902,
        "manual_surge": 0,
        "available": true,
        "status": "active",
        "dept_code": "69",
        "id": "LYO-69-69123"
      }
    },
    {
      "type": "Feature",
      "geometry": {
        "type": "Polygon",
        "coordinates": [
          [
            [
              4.882087260974963,
              45.75278164030333
            ],
            [
              4.88064584908591,
              45.74815066123709
            ],
            [
              4.885583669780063,
              45.745282952079535
            ],
            [
              4.891963299311628,
              45.74704610590794
            ],
            [
              4.893405479869949,
              45.75167717912465
            ],
            [
              4.888467262243968,
              45.75454500438166
            ],
            [
              4.882087260974963,
              45.75278164030333
            ]
          ]
        ]
      },
      "properties": {
        "uuid": "63bb9a51-4bc0-468c-aa56-f45e6c853256",
        "h3_index": "881f902503fffff",
        "city_code": "69123",
        "city_name": "Lyon",
        "latitude": 45.74991407286756,
        "longitude": 4.887025373026028,
        "manual_surge": 0,
        "available": true,
        "status": "active",
        "dept_code": "69",
        "id": "LYO-69-69123"
      }
    },
    {
      "type": "Feature",
      "geometry": {
        "type": "Polygon",
        "coordinates": [
          [
            [
              4.855953961999722,
              45.76248321395214
            ],
            [
              4.854514193330855,
              45.75785275465148
            ],
            [
              4.859452650136441,
              45.75498690139058
            ],
            [
              4.865831273305652,
              45.756751391554246
            ],
            [
              4.867271810857952,
              45.761381945283226
            ],
            [
              4.862332956374027,
              45.764247914439395
            ],
            [
              4.855953961999722,
              45.76248321395214
            ]
          ]
        ]
      },
      "properties": {
        "uuid": "651de861-8839-43c0-b727-6082fd704155",
        "h3_index": "881f902547fffff",
        "city_code": "69123",
        "city_name": "Lyon",
        "latitude": 45.75961750254678,
        "longitude": 4.860892710355972,
        "manual_surge": 0,
        "available": true,
        "status": "active",
        "dept_code": "69",
        "id": "LYO-69-69123"
      }
    },
    {
      "type": "Feature",
      "geometry": {
        "type": "Polygon",
        "coordinates": [
          [
            [
              4.826317581850476,
              45.77966909002807
            ],
            [
              4.824879563415343,
              45.77503948246163
            ],
            [
              4.829819131072247,
              45.77217602693644
            ],
            [
              4.836197115768187,
              45.77394206333525
            ],
            [
              4.837635903450578,
              45.77857176561668
            ],
            [
              4.832695937206045,
              45.78143533680345
            ],
            [
              4.826317581850476,
              45.77966909002807
            ]
          ]
        ]
      },
      "properties": {
        "uuid": "dd65bc3e-dd1b-4c41-a2c9-b4f87566d870",
        "h3_index": "881f902725fffff",
        "city_code": "69123",
        "city_name": "Lyon",
        "latitude": 45.776805776530075,
        "longitude": 4.831257441323635,
        "manual_surge": 0,
        "available": true,
        "status": "active",
        "dept_code": "69",
        "id": "LYO-69-69123"
      }
    },
    {
      "type": "Feature",
      "geometry": {
        "type": "Polygon",
        "coordinates": [
          [
            [
              4.807186022147861,
              45.77436852037602
            ],
            [
              4.805749435779657,
              45.76973877133493
            ],
            [
              4.810688682332485,
              45.76687608864128
            ],
            [
              4.817064914276682,
              45.76864303949247
            ],
            [
              4.818502269803462,
              45.773272883508284
            ],
            [
              4.81356262424367,
              45.77613568171735
            ],
            [
              4.807186022147861,
              45.77436852037602
            ]
          ]
        ]
      },
      "properties": {
        "uuid": "2248b1b7-730c-412c-bd17-760c7f8ba854",
        "h3_index": "881f9020d7fffff",
        "city_code": "69123",
        "city_name": "Lyon",
        "latitude": 45.77150597976706,
        "longitude": 4.8121255605656845,
        "manual_surge": 0,
        "available": true,
        "status": "active",
        "dept_code": "69",
        "id": "LYO-69-69123"
      }
    },
    {
      "type": "Feature",
      "geometry": {
        "type": "Polygon",
        "coordinates": [
          [
            [
              4.821193165905273,
              45.74439355688101
            ],
            [
              4.819756154116154,
              45.73976248366187
            ],
            [
              4.824693495166898,
              45.73689763474312
            ],
            [
              4.831068246377538,
              45.73866374342982
            ],
            [
              4.832506026723574,
              45.74329491158783
            ],
            [
              4.827568287318298,
              45.74615987613939
            ],
            [
              4.821193165905273,
              45.74439355688101
            ]
          ]
        ]
      },
      "properties": {
        "uuid": "07bd2018-1c15-4ad5-9088-8a0d4c64546c",
        "h3_index": "881f9020b3fffff",
        "city_code": "69123",
        "city_name": "Lyon",
        "latitude": 45.741528849894536,
        "longitude": 4.826130798532461,
        "manual_surge": 0,
        "available": true,
        "status": "active",
        "dept_code": "69",
        "id": "LYO-69-69123"
      }
    },
    {
      "type": "Feature",
      "geometry": {
        "type": "Polygon",
        "coordinates": [
          [
            [
              4.802876819157293,
              45.76047870592882
            ],
            [
              4.801440788835012,
              45.75584838967923
            ],
            [
              4.8063791599607955,
              45.75298528078827
            ],
            [
              4.812753960396629,
              45.754752372679675
            ],
            [
              4.814190759607361,
              45.759382784020424
            ],
            [
              4.809251989509978,
              45.762246008397746
            ],
            [
              4.802876819157293,
              45.76047870592882
            ]
          ]
        ]
      },
      "properties": {
        "uuid": "475d9da7-c324-42a9-bbf9-45a537d24504",
        "h3_index": "881f902083fffff",
        "city_code": "69123",
        "city_name": "Lyon",
        "latitude": 45.75761573909415,
        "longitude": 4.807815482064096,
        "manual_surge": 0,
        "available": true,
        "status": "active",
        "dept_code": "69",
        "id": "LYO-69-69123"
      }
    },
    {
      "type": "Feature",
      "geometry": {
        "type": "Polygon",
        "coordinates": [
          [
            [
              4.8812596755324575,
              45.73138845465015
            ],
            [
              4.879818715832924,
              45.72675657734472
            ],
            [
              4.884755185833907,
              45.72388790201486
            ],
            [
              4.891133012286088,
              45.72565098790967
            ],
            [
              4.8925747402349025,
              45.73028295947285
            ],
            [
              4.88763787349879,
              45.7331517509026
            ],
            [
              4.8812596755324575,
              45.73138845465015
            ]
          ]
        ]
      },
      "properties": {
        "uuid": "2736e431-4e2a-4337-a7ae-c433331293ad",
        "h3_index": "881f902535fffff",
        "city_code": "69123",
        "city_name": "Lyon",
        "latitude": 45.72851992097523,
        "longitude": 4.886196436734737,
        "manual_surge": 0,
        "available": true,
        "status": "active",
        "dept_code": "69",
        "id": "LYO-69-69123"
      }
    },
    {
      "type": "Feature",
      "geometry": {
        "type": "Polygon",
        "coordinates": [
          [
            [
              4.8063791599607955,
              45.75298528078827
            ],
            [
              4.804943023165961,
              45.74835463353783
            ],
            [
              4.8098809180527,
              45.74549098307747
            ],
            [
              4.816255348558921,
              45.74725786437092
            ],
            [
              4.8176922540918525,
              45.751888606703574
            ],
            [
              4.812753960396629,
              45.754752372679675
            ],
            [
              4.8063791599607955,
              45.75298528078827
            ]
          ]
        ]
      },
      "properties": {
        "uuid": "9c1e06e5-c47c-422b-9b44-6d2687e0663f",
        "h3_index": "881f9020b9fffff",
        "city_code": "69123",
        "city_name": "Lyon",
        "latitude": 45.7501217723461,
        "longitude": 4.811317346556435,
        "manual_surge": 0,
        "available": true,
        "status": "active",
        "dept_code": "69",
        "id": "LYO-69-69123"
      }
    },
    {
      "type": "Feature",
      "geometry": {
        "type": "Polygon",
        "coordinates": [
          [
            [
              4.8395044096397175,
              45.72830069136253
            ],
            [
              4.838066417279865,
              45.72366886176613
            ],
            [
              4.843002727629404,
              45.720802273350806
            ],
            [
              4.849377428092803,
              45.72256739877178
            ],
            [
              4.850816188677815,
              45.727199323154615
            ],
            [
              4.845879480590588,
              45.73006602734919
            ],
            [
              4.8395044096397175,
              45.72830069136253
            ]
          ]
        ]
      },
      "properties": {
        "uuid": "4c7712c5-603c-467b-b2a2-0b201ed2e9e4",
        "h3_index": "881f902e53fffff",
        "city_code": "69123",
        "city_name": "Lyon",
        "latitude": 45.7254342447553,
        "longitude": 4.844441011361076,
        "manual_surge": 0,
        "available": true,
        "status": "active",
        "dept_code": "69",
        "id": "LYO-69-69123"
      }
    },
    {
      "type": "Feature",
      "geometry": {
        "type": "Polygon",
        "coordinates": [
          [
            [
              4.814999873400562,
              45.780765194434466
            ],
            [
              4.81356262424367,
              45.77613568171735
            ],
            [
              4.818502269803462,
              45.773272883508284
            ],
            [
              4.824879563415343,
              45.77503948246163
            ],
            [
              4.826317581850476,
              45.77966909002807
            ],
            [
              4.821377537411714,
              45.782532003811
            ],
            [
              4.814999873400562,
              45.780765194434466
            ]
          ]
        ]
      },
      "properties": {
        "uuid": "a3a3a352-f31e-40cf-9497-c3c73beff98b",
        "h3_index": "881f9020d3fffff",
        "city_code": "69123",
        "city_name": "Lyon",
        "latitude": 45.77790253830037,
        "longitude": 4.819939810837118,
        "manual_surge": 0,
        "available": true,
        "status": "active",
        "dept_code": "69",
        "id": "LYO-69-69123"
      }
    },
    {
      "type": "Feature",
      "geometry": {
        "type": "Polygon",
        "coordinates": [
          [
            [
              4.867271810857952,
              45.761381945283226
            ],
            [
              4.865831273305652,
              45.756751391554246
            ],
            [
              4.870769650785811,
              45.75388488099285
            ],
            [
              4.877148963221345,
              45.75564880819683
            ],
            [
              4.8785902696254375,
              45.76027945621974
            ],
            [
              4.8736514947586755,
              45.76314608276393
            ],
            [
              4.867271810857952,
              45.761381945283226
            ]
          ]
        ]
      },
      "properties": {
        "uuid": "65cd3fd7-5968-4979-9bca-f8bfffc21647",
        "h3_index": "881f902509fffff",
        "city_code": "69123",
        "city_name": "Lyon",
        "latitude": 45.75851557652959,
        "longitude": 4.872210479828028,
        "manual_surge": 0,
        "available": true,
        "status": "active",
        "dept_code": "69",
        "id": "LYO-69-69123"
      }
    },
    {
      "type": "Feature",
      "geometry": {
        "type": "Polygon",
        "coordinates": [
          [
            [
              4.841136605121073,
              45.77107795046179
            ],
            [
              4.839697711369885,
              45.76644791689947
            ],
            [
              4.844636723884614,
              45.763583262424234
            ],
            [
              4.851015028299837,
              45.765348525751946
            ],
            [
              4.852454691116495,
              45.76997865388595
            ],
            [
              4.847515280468798,
              45.77284342413966
            ],
            [
              4.841136605121073,
              45.77107795046179
            ]
          ]
        ]
      },
      "properties": {
        "uuid": "60e5ce6c-7c9d-4809-a771-b350c8e2d4b2",
        "h3_index": "881f90254dfffff",
        "city_code": "69123",
        "city_name": "Lyon",
        "latitude": 45.76821343792794,
        "longitude": 4.846075909319288,
        "manual_surge": 0,
        "available": true,
        "status": "active",
        "dept_code": "69",
        "id": "LYO-69-69123"
      }
    },
    {
      "type": "Feature",
      "geometry": {
        "type": "Polygon",
        "coordinates": [
          [
            [
              4.814190759607361,
              45.759382784020424
            ],
            [
              4.812753960396629,
              45.754752372679675
            ],
            [
              4.8176922540918525,
              45.751888606703574
            ],
            [
              4.824067745694634,
              45.75365513651328
            ],
            [
              4.82550531376306,
              45.75828564281089
            ],
            [
              4.820566621387215,
              45.761149524361066
            ],
            [
              4.814190759607361,
              45.759382784020424
            ]
          ]
        ]
      },
      "properties": {
        "uuid": "227d3e98-4c02-4bdd-9d51-21001dcbeaa1",
        "h3_index": "881f902095fffff",
        "city_code": "69123",
        "city_name": "Lyon",
        "latitude": 45.756519160052875,
        "longitude": 4.819129345023257,
        "manual_surge": 0,
        "available": true,
        "status": "active",
        "dept_code": "69",
        "id": "LYO-69-69123"
      }
    },
    {
      "type": "Feature",
      "geometry": {
        "type": "Polygon",
        "coordinates": [
          [
            [
              4.83682048079177,
              45.757187282101604
            ],
            [
              4.8353821438966085,
              45.7525566809815
            ],
            [
              4.84032028152834,
              45.74969160073881
            ],
            [
              4.846697154169822,
              45.75145700588596
            ],
            [
              4.84813625986063,
              45.75608770169421
            ],
            [
              4.8431977241306425,
              45.75895289768629
            ],
            [
              4.83682048079177,
              45.757187282101604
            ]
          ]
        ]
      },
      "properties": {
        "uuid": "6bf5d8d1-3e73-463d-a5c9-86dbac3c404e",
        "h3_index": "881f902569fffff",
        "city_code": "69123",
        "city_name": "Lyon",
        "latitude": 45.7543223437719,
        "longitude": 4.84175891002325,
        "manual_surge": 0,
        "available": true,
        "status": "active",
        "dept_code": "69",
        "id": "LYO-69-69123"
      }
    },
    {
      "type": "Feature",
      "geometry": {
        "type": "Polygon",
        "coordinates": [
          [
            [
              4.823882125689347,
              45.715505070340946
            ],
            [
              4.822445457521746,
              45.71087276966831
            ],
            [
              4.827380972011773,
              45.70800641263714
            ],
            [
              4.833753552679378,
              45.70977224063472
            ],
            [
              4.8351909888337525,
              45.71440463634433
            ],
            [
              4.830255076349993,
              45.71727110903851
            ],
            [
              4.823882125689347,
              45.715505070340946
            ]
          ]
        ]
      },
      "properties": {
        "uuid": "a976fb75-42ee-4671-ba9e-11e2ccd2e6be",
        "h3_index": "881f902e0bfffff",
        "city_code": "69123",
        "city_name": "Lyon",
        "latitude": 45.71263885513694,
        "longitude": 4.828817931527947,
        "manual_surge": 0,
        "available": true,
        "status": "active",
        "dept_code": "69",
        "id": "LYO-69-69123"
      }
    },
    {
      "type": "Feature",
      "geometry": {
        "type": "Polygon",
        "coordinates": [
          [
            [
              4.837635903450578,
              45.77857176561668
            ],
            [
              4.836197115768187,
              45.77394206333525
            ],
            [
              4.841136605121073,
              45.77107795046179
            ],
            [
              4.847515280468798,
              45.77284342413966
            ],
            [
              4.848954837367292,
              45.77747322100172
            ],
            [
              4.844014949718282,
              45.78033744962441
            ],
            [
              4.837635903450578,
              45.77857176561668
            ]
          ]
        ]
      },
      "properties": {
        "uuid": "e4bcd9a7-7094-41eb-80f5-ec7e723c00c2",
        "h3_index": "881f902727fffff",
        "city_code": "69123",
        "city_name": "Lyon",
        "latitude": 45.775707794722656,
        "longitude": 4.842575684559157,
        "manual_surge": 0,
        "available": true,
        "status": "active",
        "dept_code": "69",
        "id": "LYO-69-69123"
      }
    },
    {
      "type": "Feature",
      "geometry": {
        "type": "Polygon",
        "coordinates": [
          [
            [
              4.772443565901578,
              45.75626798983642
            ],
            [
              4.771009735503919,
              45.751637628638356
            ],
            [
              4.775947860608349,
              45.74877594907304
            ],
            [
              4.78232021580689,
              45.75054451547254
            ],
            [
              4.7837548150339,
              45.755174972155665
            ],
            [
              4.778816290249044,
              45.758036766973326
            ],
            [
              4.772443565901578,
              45.75626798983642
            ]
          ]
        ]
      },
      "properties": {
        "uuid": "262a4dfb-9f41-4795-93b2-5685772d9605",
        "h3_index": "881f9020e3fffff",
        "city_code": "69123",
        "city_name": "Lyon",
        "latitude": 45.753406452432536,
        "longitude": 4.777381982895521,
        "manual_surge": 0,
        "available": true,
        "status": "active",
        "dept_code": "69",
        "id": "LYO-69-69123"
      }
    },
    {
      "type": "Feature",
      "geometry": {
        "type": "Polygon",
        "coordinates": [
          [
            [
              4.818502269803462,
              45.773272883508284
            ],
            [
              4.817064914276682,
              45.76864303949247
            ],
            [
              4.822004083217821,
              45.765779699570416
            ],
            [
              4.828381006417764,
              45.76754608808021
            ],
            [
              4.829819131072247,
              45.77217602693644
            ],
            [
              4.824879563415343,
              45.77503948246163
            ],
            [
              4.818502269803462,
              45.773272883508284
            ]
          ]
        ]
      },
      "properties": {
        "uuid": "4fe794b8-4a6d-4799-88eb-d62b9026c43a",
        "h3_index": "881f902099fffff",
        "city_code": "69123",
        "city_name": "Lyon",
        "latitude": 45.77040968562318,
        "longitude": 4.823441730549163,
        "manual_surge": 0,
        "available": true,
        "status": "active",
        "dept_code": "69",
        "id": "LYO-69-69123"
      }
    },
    {
      "type": "Feature",
      "geometry": {
        "type": "Polygon",
        "coordinates": [
          [
            [
              4.799373895522916,
              45.767971258308904
            ],
            [
              4.797937971739215,
              45.76334127316549
            ],
            [
              4.802876819157293,
              45.76047870592882
            ],
            [
              4.809251989509978,
              45.762246008397746
            ],
            [
              4.810688682332485,
              45.76687608864128
            ],
            [
              4.805749435779657,
              45.76973877133493
            ],
            [
              4.799373895522916,
              45.767971258308904
            ]
          ]
        ]
      },
      "properties": {
        "uuid": "1cd59f46-aca0-455f-8a17-c6a66b37d893",
        "h3_index": "881f90208bfffff",
        "city_code": "69123",
        "city_name": "Lyon",
        "latitude": 45.76510883316662,
        "longitude": 4.804313034794155,
        "manual_surge": 0,
        "available": true,
        "status": "active",
        "dept_code": "69",
        "id": "LYO-69-69123"
      }
    },
    {
      "type": "Feature",
      "geometry": {
        "type": "Polygon",
        "coordinates": [
          [
            [
              4.84032028152834,
              45.74969160073881
            ],
            [
              4.838881838611813,
              45.745060668644776
            ],
            [
              4.843819499675299,
              45.742195046999626
            ],
            [
              4.8501960016068955,
              45.74396024168892
            ],
            [
              4.851635213168563,
              45.748591268462064
            ],
            [
              4.846697154169822,
              45.75145700588596
            ],
            [
              4.84032028152834,
              45.74969160073881
            ]
          ]
        ]
      },
      "properties": {
        "uuid": "886db32a-060c-4d5d-ae72-4c24a0dce872",
        "h3_index": "881f902561fffff",
        "city_code": "69123",
        "city_name": "Lyon",
        "latitude": 45.746826120968514,
        "longitude": 4.845258234119425,
        "manual_surge": 0,
        "available": true,
        "status": "active",
        "dept_code": "69",
        "id": "LYO-69-69123"
      }
    },
    {
      "type": "Feature",
      "geometry": {
        "type": "Polygon",
        "coordinates": [
          [
            [
              4.807993331151487,
              45.795747196492265
            ],
            [
              4.806556294932659,
              45.79111834668787
            ],
            [
              4.811496893889714,
              45.78825663215903
            ],
            [
              4.81787492828742,
              45.7900236519384
            ],
            [
              4.8193127340855995,
              45.79465259660989
            ],
            [
              4.814371735922969,
              45.79751442665409
            ],
            [
              4.807993331151487,
              45.795747196492265
            ]
          ]
        ]
      },
      "properties": {
        "uuid": "e0cbe68e-e232-43b1-9fea-611741106d98",
        "h3_index": "881f902765fffff",
        "city_code": "69123",
        "city_name": "Lyon",
        "latitude": 45.79288562411436,
        "longitude": 4.8129342221297176,
        "manual_surge": 0,
        "available": true,
        "status": "active",
        "dept_code": "69",
        "id": "LYO-69-69123"
      }
    },
    {
      "type": "Feature",
      "geometry": {
        "type": "Polygon",
        "coordinates": [
          [
            [
              4.851635213168563,
              45.748591268462064
            ],
            [
              4.8501960016068955,
              45.74396024168892
            ],
            [
              4.855133583927844,
              45.74109396291836
            ],
            [
              4.861510775470735,
              45.742858595073834
            ],
            [
              4.862950755646169,
              45.74748971639173
            ],
            [
              4.8580127756813365,
              45.750356111028594
            ],
            [
              4.851635213168563,
              45.748591268462064
            ]
          ]
        ]
      },
      "properties": {
        "uuid": "99333dc0-b145-4d98-9394-edf9ff5cb32b",
        "h3_index": "881f902563fffff",
        "city_code": "69123",
        "city_name": "Lyon",
        "latitude": 45.74572513151857,
        "longitude": 4.856573086956507,
        "manual_surge": 0,
        "available": true,
        "status": "active",
        "dept_code": "69",
        "id": "LYO-69-69123"
      }
    },
    {
      "type": "Feature",
      "geometry": {
        "type": "Polygon",
        "coordinates": [
          [
            [
              4.803682778934175,
              45.781860079034665
            ],
            [
              4.802246299086313,
              45.7772306613012
            ],
            [
              4.807186022147861,
              45.77436852037602
            ],
            [
              4.81356262424367,
              45.77613568171735
            ],
            [
              4.814999873400562,
              45.780765194434466
            ],
            [
              4.810059751168829,
              45.783627450845756
            ],
            [
              4.803682778934175,
              45.781860079034665
            ]
          ]
        ]
      },
      "properties": {
        "uuid": "97abe962-bbb3-436d-9b26-54e007f640ca",
        "h3_index": "881f9020d1fffff",
        "city_code": "69123",
        "city_name": "Lyon",
        "latitude": 45.77899808023219,
        "longitude": 4.8086227939328925,
        "manual_surge": 0,
        "available": true,
        "status": "active",
        "dept_code": "69",
        "id": "LYO-69-69123"
      }
    },
    {
      "type": "Feature",
      "geometry": {
        "type": "Polygon",
        "coordinates": [
          [
            [
              4.848954837367292,
              45.77747322100172
            ],
            [
              4.847515280468798,
              45.77284342413966
            ],
            [
              4.852454691116495,
              45.76997865388595
            ],
            [
              4.858834056683519,
              45.77174356467656
            ],
            [
              4.860274382766759,
              45.776373455984874
            ],
            [
              4.855334574114599,
              45.77923834207543
            ],
            [
              4.848954837367292,
              45.77747322100172
            ]
          ]
        ]
      },
      "properties": {
        "uuid": "fb7b2079-1cee-4f58-a206-fd7cbfd8f287",
        "h3_index": "881f902549fffff",
        "city_code": "69123",
        "city_name": "Lyon",
        "latitude": 45.774608592679684,
        "longitude": 4.853894539710035,
        "manual_surge": 0,
        "available": true,
        "status": "active",
        "dept_code": "69",
        "id": "LYO-69-69123"
      }
    },
    {
      "type": "Feature",
      "geometry": {
        "type": "Polygon",
        "coordinates": [
          [
            [
              4.810688682332485,
              45.76687608864128
            ],
            [
              4.809251989509978,
              45.762246008397746
            ],
            [
              4.814190759607361,
              45.759382784020424
            ],
            [
              4.820566621387215,
              45.761149524361066
            ],
            [
              4.822004083217821,
              45.765779699570416
            ],
            [
              4.817064914276682,
              45.76864303949247
            ],
            [
              4.810688682332485,
              45.76687608864128
            ]
          ]
        ]
      },
      "properties": {
        "uuid": "2fe4cd29-01da-45bc-9a4c-926ff63658a0",
        "h3_index": "881f90209dfffff",
        "city_code": "69123",
        "city_name": "Lyon",
        "latitude": 45.7640130063106,
        "longitude": 4.815627744222676,
        "manual_surge": 0,
        "available": true,
        "status": "active",
        "dept_code": "69",
        "id": "LYO-69-69123"
      }
    },
    {
      "type": "Feature",
      "geometry": {
        "type": "Polygon",
        "coordinates": [
          [
            [
              4.811496893889714,
              45.78825663215903
            ],
            [
              4.810059751168829,
              45.783627450845756
            ],
            [
              4.814999873400562,
              45.780765194434466
            ],
            [
              4.821377537411714,
              45.782532003811
            ],
            [
              4.822815449561405,
              45.78716127998249
            ],
            [
              4.81787492828742,
              45.7900236519384
            ],
            [
              4.811496893889714,
              45.78825663215903
            ]
          ]
        ]
      },
      "properties": {
        "uuid": "40b46cec-9ce7-4831-bf3f-3480047a6287",
        "h3_index": "881f9020dbfffff",
        "city_code": "69123",
        "city_name": "Lyon",
        "latitude": 45.78539451786071,
        "longitude": 4.816437308070433,
        "manual_surge": 0,
        "available": true,
        "status": "active",
        "dept_code": "69",
        "id": "LYO-69-69123"
      }
    },
    {
      "type": "Feature",
      "geometry": {
        "type": "Polygon",
        "coordinates": [
          [
            [
              4.847318135351997,
              45.73469762107462
            ],
            [
              4.845879480590588,
              45.73006602734919
            ],
            [
              4.850816188677815,
              45.727199323154615
            ],
            [
              4.857191949152202,
              45.728964096867195
            ],
            [
              4.858631372257861,
              45.733595785253726
            ],
            [
              4.85369426656124,
              45.73646260528572
            ],
            [
              4.847318135351997,
              45.73469762107462
            ]
          ]
        ]
      },
      "properties": {
        "uuid": "36faf879-afd1-44eb-b457-567afffe7df9",
        "h3_index": "881f90252dfffff",
        "city_code": "69123",
        "city_name": "Lyon",
        "latitude": 45.73183105867854,
        "longitude": 4.8522551348225855,
        "manual_surge": 0,
        "available": true,
        "status": "active",
        "dept_code": "69",
        "id": "LYO-69-69123"
      }
    },
    {
      "type": "Feature",
      "geometry": {
        "type": "Polygon",
        "coordinates": [
          [
            [
              4.7958703889383685,
              45.775462937738496
            ],
            [
              4.794434571759351,
              45.770833283806446
            ],
            [
              4.799373895522916,
              45.767971258308904
            ],
            [
              4.805749435779657,
              45.76973877133493
            ],
            [
              4.807186022147861,
              45.77436852037602
            ],
            [
              4.802246299086313,
              45.7772306613012
            ],
            [
              4.7958703889383685,
              45.775462937738496
            ]
          ]
        ]
      },
      "properties": {
        "uuid": "d37e0d9d-bc2a-4ab7-8b7f-e65c89f476eb",
        "h3_index": "881f9020d5fffff",
        "city_code": "69123",
        "city_name": "Lyon",
        "latitude": 45.772601054373375,
        "longitude": 4.800810004627253,
        "manual_surge": 0,
        "available": true,
        "status": "active",
        "dept_code": "69",
        "id": "LYO-69-69123"
      }
    },
    {
      "type": "Feature",
      "geometry": {
        "type": "Polygon",
        "coordinates": [
          [
            [
              4.862950755646169,
              45.74748971639173
            ],
            [
              4.861510775470735,
              45.742858595073834
            ],
            [
              4.866448278648326,
              45.73999165914618
            ],
            [
              4.8728261593701845,
              45.741755728601824
            ],
            [
              4.874266908127857,
              45.74638694433006
            ],
            [
              4.869329007597867,
              45.74925399621151
            ],
            [
              4.862950755646169,
              45.74748971639173
            ]
          ]
        ]
      },
      "properties": {
        "uuid": "7fbd6231-be54-40d4-9c9c-8e7c54858506",
        "h3_index": "881f902505fffff",
        "city_code": "69123",
        "city_name": "Lyon",
        "latitude": 45.74462292224335,
        "longitude": 4.867888550230095,
        "manual_surge": 0,
        "available": true,
        "status": "active",
        "dept_code": "69",
        "id": "LYO-69-69123"
      }
    },
    {
      "type": "Feature",
      "geometry": {
        "type": "Polygon",
        "coordinates": [
          [
            [
              4.788861626441447,
              45.79044367698684
            ],
            [
              4.787426022670127,
              45.7858146857929
            ],
            [
              4.792366299284345,
              45.782953744027736
            ],
            [
              4.798742579310629,
              45.78472167810666
            ],
            [
              4.800178952572022,
              45.789350764427425
            ],
            [
              4.795238276333184,
              45.79221182156159
            ],
            [
              4.788861626441447,
              45.79044367698684
            ]
          ]
        ]
      },
      "properties": {
        "uuid": "5c200a99-58d1-4cad-9b67-638eb683761a",
        "h3_index": "881f9022b7fffff",
        "city_code": "69123",
        "city_name": "Lyon",
        "latitude": 45.787582877430076,
        "longitude": 4.793802195125346,
        "manual_surge": 0,
        "available": true,
        "status": "active",
        "dept_code": "69",
        "id": "LYO-69-69123"
      }
    },
    {
      "type": "Feature",
      "geometry": {
        "type": "Polygon",
        "coordinates": [
          [
            [
              4.829005961558518,
              45.7507907134199
            ],
            [
              4.827568287318298,
              45.74615987613939
            ],
            [
              4.832506026723574,
              45.74329491158783
            ],
            [
              4.838881838611813,
              45.745060668644776
            ],
            [
              4.84032028152834,
              45.74969160073881
            ],
            [
              4.8353821438966085,
              45.7525566809815
            ],
            [
              4.829005961558518,
              45.7507907134199
            ]
          ]
        ]
      },
      "properties": {
        "uuid": "c6d2ee44-6abb-450e-8901-3ddfe73e5009",
        "h3_index": "881f90256dfffff",
        "city_code": "69123",
        "city_name": "Lyon",
        "latitude": 45.74792589079097,
        "longitude": 4.833943992551906,
        "manual_surge": 0,
        "available": true,
        "status": "active",
        "dept_code": "69",
        "id": "LYO-69-69123"
      }
    },
    {
      "type": "Feature",
      "geometry": {
        "type": "Polygon",
        "coordinates": [
          [
            [
              4.829819131072247,
              45.77217602693644
            ],
            [
              4.828381006417764,
              45.76754608808021
            ],
            [
              4.833320097346219,
              45.764682090897566
            ],
            [
              4.839697711369885,
              45.76644791689947
            ],
            [
              4.841136605121073,
              45.77107795046179
            ],
            [
              4.836197115768187,
              45.77394206333525
            ],
            [
              4.829819131072247,
              45.77217602693644
            ]
          ]
        ]
      },
      "properties": {
        "uuid": "5133ccd2-6339-4911-ae23-b5f34d146daf",
        "h3_index": "881f90209bfffff",
        "city_code": "69123",
        "city_name": "Lyon",
        "latitude": 45.76931217174298,
        "longitude": 4.8347585137447835,
        "manual_surge": 0,
        "available": true,
        "status": "active",
        "dept_code": "69",
        "id": "LYO-69-69123"
      }
    },
    {
      "type": "Feature",
      "geometry": {
        "type": "Polygon",
        "coordinates": [
          [
            [
              4.816882686578787,
              45.73049977070664
            ],
            [
              4.815446230762411,
              45.72586813108616
            ],
            [
              4.820382697251409,
              45.723002856427755
            ],
            [
              4.826756017892454,
              45.724769105804924
            ],
            [
              4.828193241996037,
              45.729400840480544
            ],
            [
              4.8232563771875725,
              45.73226623074298
            ],
            [
              4.816882686578787,
              45.73049977070664
            ]
          ]
        ]
      },
      "properties": {
        "uuid": "611f8537-6318-4a21-9175-5488f654f9fc",
        "h3_index": "881f902e5dfffff",
        "city_code": "69123",
        "city_name": "Lyon",
        "latitude": 45.727634637951915,
        "longitude": 4.8218194445604246,
        "manual_surge": 0,
        "available": true,
        "status": "active",
        "dept_code": "69",
        "id": "LYO-69-69123"
      }
    },
    {
      "type": "Feature",
      "geometry": {
        "type": "Polygon",
        "coordinates": [
          [
            [
              4.844636723884614,
              45.763583262424234
            ],
            [
              4.8431977241306425,
              45.75895289768629
            ],
            [
              4.84813625986063,
              45.75608770169421
            ],
            [
              4.854514193330855,
              45.75785275465148
            ],
            [
              4.855953961999722,
              45.76248321395214
            ],
            [
              4.851015028299837,
              45.765348525751946
            ],
            [
              4.844636723884614,
              45.763583262424234
            ]
          ]
        ]
      },
      "properties": {
        "uuid": "add75bec-1057-4846-bde1-1b6dd2aba81c",
        "h3_index": "881f902545fffff",
        "city_code": "69123",
        "city_name": "Lyon",
        "latitude": 45.76071820833547,
        "longitude": 4.849575551225926,
        "manual_surge": 0,
        "available": true,
        "status": "active",
        "dept_code": "69",
        "id": "LYO-69-69123"
      }
    },
    {
      "type": "Feature",
      "geometry": {
        "type": "Polygon",
        "coordinates": [
          [
            [
              4.8133820935522955,
              45.73799581298676
            ],
            [
              4.811945744010458,
              45.73336450405079
            ],
            [
              4.816882686578787,
              45.73049977070664
            ],
            [
              4.8232563771875725,
              45.73226623074298
            ],
            [
              4.824693495166898,
              45.73689763474312
            ],
            [
              4.819756154116154,
              45.73976248366187
            ],
            [
              4.8133820935522955,
              45.73799581298676
            ]
          ]
        ]
      },
      "properties": {
        "uuid": "92a7feb6-45c4-4bb4-9f9d-d53be19253fd",
        "h3_index": "881f9020b7fffff",
        "city_code": "69123",
        "city_name": "Lyon",
        "latitude": 45.735131221584474,
        "longitude": 4.818319327685354,
        "manual_surge": 0,
        "available": true,
        "status": "active",
        "dept_code": "69",
        "id": "LYO-69-69123"
      }
    },
    {
      "type": "Feature",
      "geometry": {
        "type": "Polygon",
        "coordinates": [
          [
            [
              4.877763583003582,
              45.738888135485546
            ],
            [
              4.876322728742067,
              45.73425658891593
            ],
            [
              4.8812596755324575,
              45.73138845465015
            ],
            [
              4.88763787349879,
              45.7331517509026
            ],
            [
              4.889079496160202,
              45.73778339173908
            ],
            [
              4.884142152471904,
              45.7406516420754
            ],
            [
              4.877763583003582,
              45.738888135485546
            ]
          ]
        ]
      },
      "properties": {
        "uuid": "fed5d83a-4633-4293-8cd3-8803bc9e4184",
        "h3_index": "881f90253dfffff",
        "city_code": "69123",
        "city_name": "Lyon",
        "latitude": 45.736020142913,
        "longitude": 4.882700821067421,
        "manual_surge": 0,
        "available": true,
        "status": "active",
        "dept_code": "69",
        "id": "LYO-69-69123"
      }
    },
    {
      "type": "Feature",
      "geometry": {
        "type": "Polygon",
        "coordinates": [
          [
            [
              4.828193241996037,
              45.729400840480544
            ],
            [
              4.826756017892454,
              45.724769105804924
            ],
            [
              4.831692406511923,
              45.72190317428399
            ],
            [
              4.838066417279865,
              45.72366886176613
            ],
            [
              4.8395044096397175,
              45.72830069136253
            ],
            [
              4.834567622991629,
              45.73116673857515
            ],
            [
              4.828193241996037,
              45.729400840480544
            ]
          ]
        ]
      },
      "properties": {
        "uuid": "f61dce6f-f8e1-417b-b40c-bda8d229e433",
        "h3_index": "881f902e51fffff",
        "city_code": "69123",
        "city_name": "Lyon",
        "latitude": 45.72653505081549,
        "longitude": 4.833129922047778,
        "manual_surge": 0,
        "available": true,
        "status": "active",
        "dept_code": "69",
        "id": "LYO-69-69123"
      }
    }
  ]
}