{
  "type": "FeatureCollection",
  "features": [
    {
      "type": "Feature",
      "geometry": {
        "type": "Polygon",
        "coordinates": [
          [
            [
              4.820382697251409,
              45.723002856427755
            ],
            [
              4.8189461352264615,
              45.71837088622838
            ],
            [
              4.823882125689347,
              45.715505070340946
            ],
            [
              4.830255076349993,
              45.71727110903851
            ],
            [
              4.831692406511923,
              45.72190317428399
            ],
            [
              4.826756017892454,
              45.724769105804924
            ],
            [
              4.820382697251409,
              45.723002856427755
            ]
          ]
        ]
      },
      "properties": {
        "uuid": "ab003a0e-69b4-4628-a127-549b1d807072",
        "h3_index": "881f902e55fffff",
        "city_code": "69123",
        "city_name": "Lyon",
        "latitude": 45.72013718240578,
        "longitude": 4.825318979134907,
        "manual_surge": 0,
        "available": true,
        "status": "active"
      }
    },
    {
      "type": "Feature",
      "geometry": {
        "type": "Polygon",
        "coordinates": [
          [
            [
              4.822004083217821,
              45.765779699570416
            ],
            [
              4.820566621387215,
              45.761149524361066
            ],
            [
              4.82550531376306,
              45.75828564281089
            ],
            [
              4.831881866538376,
              45.76005182085675
            ],
            [
              4.833320097346219,
              45.764682090897566
            ],
            [
              4.828381006417764,
              45.76754608808021
            ],
            [
              4.822004083217821,
              45.765779699570416
            ]
          ]
        ]
      },
      "properties": {
        "uuid": "37452147-2e5f-4764-a54f-9bb4762274a2",
        "h3_index": "881f902091fffff",
        "city_code": "69123",
        "city_name": "Lyon",
        "latitude": 45.7629159600191,
        "longitude": 4.826943067326052,
        "manual_surge": 0,
        "available": true,
        "status": "active"
      }
    },
    {
      "type": "Feature",
      "geometry": {
        "type": "Polygon",
        "coordinates": [
          [
            [
              4.8176922540918525,
              45.751888606703574
            ],
            [
              4.816255348558921,
              45.74725786437092
            ],
            [
              4.821193165905273,
              45.74439355688101
            ],
            [
              4.827568287318298,
              45.74615987613939
            ],
            [
              4.829005961558518,
              45.7507907134199
            ],
            [
              4.824067745694634,
              45.75365513651328
            ],
            [
              4.8176922540918525,
              45.751888606703574
            ]
          ]
        ]
      },
      "properties": {
        "uuid": "32a66cb8-85d1-4831-bb63-5cfa16c755fc",
        "h3_index": "881f9020bbfffff",
        "city_code": "69123",
        "city_name": "Lyon",
        "latitude": 45.74902444118407,
        "longitude": 4.822630363086742,
        "manual_surge": 0,
        "available": true,
        "status": "active"
      }
    },
    {
      "type": "Feature",
      "geometry": {
        "type": "Polygon",
        "coordinates": [
          [
            [
              4.791563493245154,
              45.76157340873487
            ],
            [
              4.790128231841862,
              45.756943187710775
            ],
            [
              4.795066679997506,
              45.75408073587267
            ],
            [
              4.801440788835012,
              45.75584838967923
            ],
            [
              4.802876819157293,
              45.76047870592882
            ],
            [
              4.797937971739215,
              45.76334127316549
            ],
            [
              4.791563493245154,
              45.76157340873487
            ]
          ]
        ]
      },
      "properties": {
        "uuid": "a0b12d60-86d4-4a68-bb66-be73ed37185d",
        "h3_index": "881f902081fffff",
        "city_code": "69123",
        "city_name": "Lyon",
        "latitude": 45.75871109900083,
        "longitude": 4.796502233242105,
        "manual_surge": 0,
        "available": true,
        "status": "active"
      }
    },
    {
      "type": "Feature",
      "geometry": {
        "type": "Polygon",
        "coordinates": [
          [
            [
              4.869945219262343,
              45.73249272984471
            ],
            [
              4.868505027843938,
              45.72786094693151
            ],
            [
              4.873441577607631,
              45.724992928678155
            ],
            [
              4.879818715832924,
              45.72675657734472
            ],
            [
              4.8812596755324575,
              45.73138845465015
            ],
            [
              4.876322728742067,
              45.73425658891593
            ],
            [
              4.869945219262343,
              45.73249272984471
            ]
          ]
        ]
      },
      "properties": {
        "uuid": "5f06a57d-9f14-4dde-a8f6-7284b629ba09",
        "h3_index": "881f902523fffff",
        "city_code": "69123",
        "city_name": "Lyon",
        "latitude": 45.729624853294176,
        "longitude": 4.874882060288104,
        "manual_surge": 0,
        "available": true,
        "status": "active"
      }
    },
    {
      "type": "Feature",
      "geometry": {
        "type": "Polygon",
        "coordinates": [
          [
            [
              4.870769650785811,
              45.75388488099285
            ],
            [
              4.869329007597867,
              45.74925399621151
            ],
            [
              4.874266908127857,
              45.74638694433006
            ],
            [
              4.88064584908591,
              45.74815066123709
            ],
            [
              4.882087260974963,
              45.75278164030333
            ],
            [
              4.877148963221345,
              45.75564880819683
            ],
            [
              4.870769650785811,
              45.75388488099285
            ]
          ]
        ]
      },
      "properties": {
        "uuid": "07bed0e9-9d76-4858-94c0-b119bf707ff4",
        "h3_index": "881f902501fffff",
        "city_code": "69123",
        "city_name": "Lyon",
        "latitude": 45.751017970880994,
        "longitude": 4.875707842733529,
        "manual_surge": 0,
        "available": true,
        "status": "active"
      }
    },
    {
      "type": "Feature",
      "geometry": {
        "type": "Polygon",
        "coordinates": [
          [
            [
              4.788059723621597,
              45.769065208772254
            ],
            [
              4.78662456890721,
              45.76443531886326
            ],
            [
              4.791563493245154,
              45.76157340873487
            ],
            [
              4.797937971739215,
              45.76334127316549
            ],
            [
              4.799373895522916,
              45.767971258308904
            ],
            [
              4.794434571759351,
              45.770833283806446
            ],
            [
              4.788059723621597,
              45.769065208772254
            ]
          ]
        ]
      },
      "properties": {
        "uuid": "b9e9a670-03f3-4315-a7db-f9774aed1f12",
        "h3_index": "881f902089fffff",
        "city_code": "69123",
        "city_name": "Lyon",
        "latitude": 45.766203440786015,
        "longitude": 4.792998939872974,
        "manual_surge": 0,
        "available": true,
        "status": "active"
      }
    },
    {
      "type": "Feature",
      "geometry": {
        "type": "Polygon",
        "coordinates": [
          [
            [
              4.832506026723574,
              45.74329491158783
            ],
            [
              4.831068246377538,
              45.73866374342982
            ],
            [
              4.836005509377536,
              45.735798237505136
            ],
            [
              4.842380950803356,
              45.73756378403711
            ],
            [
              4.843819499675299,
              45.742195046999626
            ],
            [
              4.838881838611813,
              45.745060668644776
            ],
            [
              4.832506026723574,
              45.74329491158783
            ]
          ]
        ]
      },
      "properties": {
        "uuid": "7663b98b-62dd-4033-abc7-74b9a427de4b",
        "h3_index": "881f902565fffff",
        "city_code": "69123",
        "city_name": "Lyon",
        "latitude": 45.74042954754763,
        "longitude": 4.837443581239573,
        "manual_surge": 0,
        "available": true,
        "status": "active"
      }
    },
    {
      "type": "Feature",
      "geometry": {
        "type": "Polygon",
        "coordinates": [
          [
            [
              4.84813625986063,
              45.75608770169421
            ],
            [
              4.846697154169822,
              45.75145700588596
            ],
            [
              4.851635213168563,
              45.748591268462064
            ],
            [
              4.8580127756813365,
              45.750356111028594
            ],
            [
              4.859452650136441,
              45.75498690139058
            ],
            [
              4.854514193330855,
              45.75785275465148
            ],
            [
              4.84813625986063,
              45.75608770169421
            ]
          ]
        ]
      },
      "properties": {
        "uuid": "663eace8-9533-4499-b38a-520fd41f3f3d",
        "h3_index": "881f90256bfffff",
        "city_code": "69123",
        "city_name": "Lyon",
        "latitude": 45.75322210613553,
        "longitude": 4.853074610398507,
        "manual_surge": 0,
        "available": true,
        "status": "active"
      }
    },
    {
      "type": "Feature",
      "geometry": {
        "type": "Polygon",
        "coordinates": [
          [
            [
              4.831692406511923,
              45.72190317428399
            ],
            [
              4.830255076349993,
              45.71727110903851
            ],
            [
              4.8351909888337525,
              45.71440463634433
            ],
            [
              4.841564629361499,
              45.716170113193634
            ],
            [
              4.843002727629404,
              45.720802273350806
            ],
            [
              4.838066417279865,
              45.72366886176613
            ],
            [
              4.831692406511923,
              45.72190317428399
            ]
          ]
        ]
      },
      "properties": {
        "uuid": "a3828a58-5c66-4372-9923-3737fe3ecd65",
        "h3_index": "881f902e57fffff",
        "city_code": "69123",
        "city_name": "Lyon",
        "latitude": 45.71903684340742,
        "longitude": 4.836628610355877,
        "manual_surge": 0,
        "available": true,
        "status": "active"
      }
    },
    {
      "type": "Feature",
      "geometry": {
        "type": "Polygon",
        "coordinates": [
          [
            [
              4.852454691116495,
              45.76997865388595
            ],
            [
              4.851015028299837,
              45.765348525751946
            ],
            [
              4.855953961999722,
              45.76248321395214
            ],
            [
              4.862332956374027,
              45.764247914439395
            ],
            [
              4.863773388224781,
              45.7688781370107
            ],
            [
              4.858834056683519,
              45.77174356467656
            ],
            [
              4.852454691116495,
              45.76997865388595
            ]
          ]
        ]
      },
      "properties": {
        "uuid": "78e240e1-1c01-4f0c-a829-5279f420dd35",
        "h3_index": "881f902541fffff",
        "city_code": "69123",
        "city_name": "Lyon",
        "latitude": 45.767113483979756,
        "longitude": 4.857393916439224,
        "manual_surge": 0,
        "available": true,
        "status": "active"
      }
    },
    {
      "type": "Feature",
      "geometry": {
        "type": "Polygon",
        "coordinates": [
          [
            [
              4.800178952572022,
              45.789350764427425
            ],
            [
              4.798742579310629,
              45.78472167810666
            ],
            [
              4.803682778934175,
              45.781860079034665
            ],
            [
              4.810059751168829,
              45.783627450845756
            ],
            [
              4.811496893889714,
              45.78825663215903
            ],
            [
              4.806556294932659,
              45.79111834668787
            ],
            [
              4.800178952572022,
              45.789350764427425
            ]
          ]
        ]
      },
      "properties": {
        "uuid": "d57ed970-4575-4cea-af90-341a1888dfb1",
        "h3_index": "881f9020d9fffff",
        "city_code": "69123",
        "city_name": "Lyon",
        "latitude": 45.7864893075161,
        "longitude": 4.805119444204927,
        "manual_surge": 0,
        "available": true,
        "status": "active"
      }
    },
    {
      "type": "Feature",
      "geometry": {
        "type": "Polygon",
        "coordinates": [
          [
            [
              4.885583669780063,
              45.745282952079535
            ],
            [
              4.884142152471904,
              45.7406516420754
            ],
            [
              4.889079496160202,
              45.73778339173908
            ],
            [
              4.895458753942159,
              45.73954633529732
            ],
            [
              4.8969010397688875,
              45.74417773944289
            ],
            [
              4.891963299311628,
              45.74704610590794
            ],
            [
              4.885583669780063,
              45.745282952079535
            ]
          ]
        ]
      },
      "properties": {
        "uuid": "784d0354-20b2-4eb1-aedc-ff704cc19637",
        "h3_index": "881f902539fffff",
        "city_code": "69123",
        "city_name": "Lyon",
        "latitude": 45.742414843426786,
        "longitude": 4.890521304753094,
        "manual_surge": 0,
        "available": true,
        "status": "active"
      }
    },
    {
      "type": "Feature",
      "geometry": {
        "type": "Polygon",
        "coordinates": [
          [
            [
              4.8098809180527,
              45.74549098307747
            ],
            [
              4.80844467485136,
              45.74086000493154
            ],
            [
              4.8133820935522955,
              45.73799581298676
            ],
            [
              4.819756154116154,
              45.73976248366187
            ],
            [
              4.821193165905273,
              45.74439355688101
            ],
            [
              4.816255348558921,
              45.74725786437092
            ],
            [
              4.8098809180527,
              45.74549098307747
            ]
          ]
        ]
      },
      "properties": {
        "uuid": "ecd1fe45-a03b-422c-9c8d-fc234e25b818",
        "h3_index": "881f9020b1fffff",
        "city_code": "69123",
        "city_name": "Lyon",
        "latitude": 45.74262693311274,
        "longitude": 4.8148186283904275,
        "manual_surge": 0,
        "available": true,
        "status": "active"
      }
    },
    {
      "type": "Feature",
      "geometry": {
        "type": "Polygon",
        "coordinates": [
          [
            [
              4.843819499675299,
              45.742195046999626
            ],
            [
              4.842380950803356,
              45.73756378403711
            ],
            [
              4.847318135351997,
              45.73469762107462
            ],
            [
              4.85369426656124,
              45.73646260528572
            ],
            [
              4.855133583927844,
              45.74109396291836
            ],
            [
              4.8501960016068955,
              45.74396024168892
            ],
            [
              4.843819499675299,
              45.742195046999626
            ]
          ]
        ]
      },
      "properties": {
        "uuid": "cc3551cd-6cb3-4572-a1fe-a411fdd1936a",
        "h3_index": "881f902567fffff",
        "city_code": "69123",
        "city_name": "Lyon",
        "latitude": 45.73932902587384,
        "longitude": 4.848756975679417,
        "manual_surge": 0,
        "available": true,
        "status": "active"
      }
    },
    {
      "type": "Feature",
      "geometry": {
        "type": "Polygon",
        "coordinates": [
          [
            [
              4.792366299284345,
              45.782953744027736
            ],
            [
              4.7909305887761,
              45.778324421412194
            ],
            [
              4.7958703889383685,
              45.775462937738496
            ],
            [
              4.802246299086313,
              45.7772306613012
            ],
            [
              4.803682778934175,
              45.781860079034665
            ],
            [
              4.798742579310629,
              45.78472167810666
            ],
            [
              4.792366299284345,
              45.782953744027736
            ]
          ]
        ]
      },
      "properties": {
        "uuid": "56469559-60b0-4e27-99e0-82e4d431c22b",
        "h3_index": "881f9020ddfffff",
        "city_code": "69123",
        "city_name": "Lyon",
        "latitude": 45.780092402524474,
        "longitude": 4.797306391444099,
        "manual_surge": 0,
        "available": true,
        "status": "active"
      }
    },
    {
      "type": "Feature",
      "geometry": {
        "type": "Polygon",
        "coordinates": [
          [
            [
              4.795066679997506,
              45.75408073587267
            ],
            [
              4.79363131197137,
              45.749450183838746
            ],
            [
              4.798569283997895,
              45.74658719037574
            ],
            [
              4.804943023165961,
              45.74835463353783
            ],
            [
              4.8063791599607955,
              45.75298528078827
            ],
            [
              4.801440788835012,
              45.75584838967923
            ],
            [
              4.795066679997506,
              45.75408073587267
            ]
          ]
        ]
      },
      "properties": {
        "uuid": "275fa6cd-ea36-44f2-ab09-22fdbc806cb6",
        "h3_index": "881f902087fffff",
        "city_code": "69123",
        "city_name": "Lyon",
        "latitude": 45.75121788447563,
        "longitude": 4.80000494379321,
        "manual_surge": 0,
        "available": true,
        "status": "active"
      }
    },
    {
      "type": "Feature",
      "geometry": {
        "type": "Polygon",
        "coordinates": [
          [
            [
              4.836005509377536,
              45.735798237505136
            ],
            [
              4.834567622991629,
              45.73116673857515
            ],
            [
              4.8395044096397175,
              45.72830069136253
            ],
            [
              4.845879480590588,
              45.73006602734919
            ],
            [
              4.847318135351997,
              45.73469762107462
            ],
            [
              4.842380950803356,
              45.73756378403711
            ],
            [
              4.836005509377536,
              45.735798237505136
            ]
          ]
        ]
      },
      "properties": {
        "uuid": "1fa58096-36bb-4cb2-85e6-553812f07e94",
        "h3_index": "881f902e5bfffff",
        "city_code": "69123",
        "city_name": "Lyon",
        "latitude": 45.73293233213881,
        "longitude": 4.840942587469538,
        "manual_surge": 0,
        "available": true,
        "status": "active"
      }
    },
    {
      "type": "Feature",
      "geometry": {
        "type": "Polygon",
        "coordinates": [
          [
            [
              4.874266908127857,
              45.74638694433006
            ],
            [
              4.8728261593701845,
              45.741755728601824
            ],
            [
              4.877763583003582,
              45.738888135485546
            ],
            [
              4.884142152471904,
              45.7406516420754
            ],
            [
              4.885583669780063,
              45.745282952079535
            ],
            [
              4.88064584908591,
              45.74815066123709
            ],
            [
              4.874266908127857,
              45.74638694433006
            ]
          ]
        ]
      },
      "properties": {
        "uuid": "5c0360a4-89d0-4393-9d04-a054bb98aeb6",
        "h3_index": "881f902507fffff",
        "city_code": "69123",
        "city_name": "Lyon",
        "latitude": 45.74351949294521,
        "longitude": 4.879204623106834,
        "manual_surge": 0,
        "available": true,
        "status": "active"
      }
    },
    {
      "type": "Feature",
      "geometry": {
        "type": "Polygon",
        "coordinates": [
          [
            [
              4.824693495166898,
              45.73689763474312
            ],
            [
              4.8232563771875725,
              45.73226623074298
            ],
            [
              4.828193241996037,
              45.729400840480544
            ],
            [
              4.834567622991629,
              45.73116673857515
            ],
            [
              4.836005509377536,
              45.735798237505136
            ],
            [
              4.831068246377538,
              45.73866374342982
            ],
            [
              4.824693495166898,
              45.73689763474312
            ]
          ]
        ]
      },
      "properties": {
        "uuid": "fdc3ff90-0163-4d7d-a23c-066e45847f0d",
        "h3_index": "881f902e59fffff",
        "city_code": "69123",
        "city_name": "Lyon",
        "latitude": 45.73403238637478,
        "longitude": 4.829630651479712,
        "manual_surge": 0,
        "available": true,
        "status": "active"
      }
    },
    {
      "type": "Feature",
      "geometry": {
        "type": "Polygon",
        "coordinates": [
          [
            [
              4.82550531376306,
              45.75828564281089
            ],
            [
              4.824067745694634,
              45.75365513651328
            ],
            [
              4.829005961558518,
              45.7507907134199
            ],
            [
              4.8353821438966085,
              45.7525566809815
            ],
            [
              4.83682048079177,
              45.757187282101604
            ],
            [
              4.831881866538376,
              45.76005182085675
            ],
            [
              4.82550531376306,
              45.75828564281089
            ]
          ]
        ]
      },
      "properties": {
        "uuid": "e0908edd-e6f6-492b-a295-485078b503e0",
        "h3_index": "881f902097fffff",
        "city_code": "69123",
        "city_name": "Lyon",
        "latitude": 45.75542136167827,
        "longitude": 4.8304438212871785,
        "manual_surge": 0,
        "available": true,
        "status": "active"
      }
    },
    {
      "type": "Feature",
      "geometry": {
        "type": "Polygon",
        "coordinates": [
          [
            [
              4.827130299802225,
              45.80104797188551
            ],
            [
              4.825691830722533,
              45.79641926407739
            ],
            [
              4.830632750910651,
              45.79355677651835
            ],
            [
              4.837012538980672,
              45.79532288112493
            ],
            [
              4.838451777728482,
              45.79995168354033
            ],
            [
              4.83351045875449,
              45.80281428676104
            ],
            [
              4.827130299802225,
              45.80104797188551
            ]
          ]
        ]
      },
      "properties": {
        "uuid": "bb13b72a-aba5-44f9-bbd8-e7d6d57bab67",
        "h3_index": "881f902763fffff",
        "city_code": "69123",
        "city_name": "Lyon",
        "latitude": 45.79818562641987,
        "longitude": 4.832071511962774,
        "manual_surge": 0,
        "available": true,
        "status": "active"
      }
    },
    {
      "type": "Feature",
      "geometry": {
        "type": "Polygon",
        "coordinates": [
          [
            [
              4.858631372257861,
              45.733595785253726
            ],
            [
              4.857191949152202,
              45.728964096867195
            ],
            [
              4.862128578277983,
              45.726096735658984
            ],
            [
              4.868505027843938,
              45.72786094693151
            ],
            [
              4.869945219262343,
              45.73249272984471
            ],
            [
              4.865008192818465,
              45.735360206977866
            ],
            [
              4.858631372257861,
              45.733595785253726
            ]
          ]
        ]
      },
      "properties": {
        "uuid": "108f5153-a846-4aa6-a40f-d06f1ad48c56",
        "h3_index": "881f902521fffff",
        "city_code": "69123",
        "city_name": "Lyon",
        "latitude": 45.73072856579618,
        "longitude": 4.863568292706383,
        "manual_surge": 0,
        "available": true,
        "status": "active"
      }
    },
    {
      "type": "Feature",
      "geometry": {
        "type": "Polygon",
        "coordinates": [
          [
            [
              4.833320097346219,
              45.764682090897566
            ],
            [
              4.831881866538376,
              45.76005182085675
            ],
            [
              4.83682048079177,
              45.757187282101604
            ],
            [
              4.8431977241306425,
              45.75895289768629
            ],
            [
              4.844636723884614,
              45.763583262424234
            ],
            [
              4.839697711369885,
              45.76644791689947
            ],
            [
              4.833320097346219,
              45.764682090897566
            ]
          ]
        ]
      },
      "properties": {
        "uuid": "9d2164c7-c903-46bb-a822-4adf5d85c009",
        "h3_index": "881f902093fffff",
        "city_code": "69123",
        "city_name": "Lyon",
        "latitude": 45.761817694093516,
        "longitude": 4.838259003271496,
        "manual_surge": 0,
        "available": true,
        "status": "active"
      }
    },
    {
      "type": "Feature",
      "geometry": {
        "type": "Polygon",
        "coordinates": [
          [
            [
              4.8158094353035334,
              45.80214303972059
            ],
            [
              4.814371735922969,
              45.79751442665409
            ],
            [
              4.8193127340855995,
              45.79465259660989
            ],
            [
              4.825691830722533,
              45.79641926407739
            ],
            [
              4.827130299802225,
              45.80104797188551
            ],
            [
              4.82218890256213,
              45.80390991750367
            ],
            [
              4.8158094353035334,
              45.80214303972059
            ]
          ]
        ]
      },
      "properties": {
        "uuid": "9ec1d493-e439-4733-80d3-d9bc3fa5d33e",
        "h3_index": "881f902761fffff",
        "city_code": "69123",
        "city_name": "Lyon",
        "latitude": 45.79928135181753,
        "longitude": 4.820750725499129,
        "manual_surge": 0,
        "available": true,
        "status": "active"
      }
    },
    {
      "type": "Feature",
      "geometry": {
        "type": "Polygon",
        "coordinates": [
          [
            [
              4.866448278648326,
              45.73999165914618
            ],
            [
              4.865008192818465,
              45.735360206977866
            ],
            [
              4.869945219262343,
              45.73249272984471
            ],
            [
              4.876322728742067,
              45.73425658891593
            ],
            [
              4.877763583003582,
              45.738888135485546
            ],
            [
              4.8728261593701845,
              45.741755728601824
            ],
            [
              4.866448278648326,
              45.73999165914618
            ]
          ]
        ]
      },
      "properties": {
        "uuid": "4e6333b1-cfc0-4849-b1b2-1b1ae59397c6",
        "h3_index": "881f90252bfffff",
        "city_code": "69123",
        "city_name": "Lyon",
        "latitude": 45.73712432375409,
        "longitude": 4.871385596426401,
        "manual_surge": 0,
        "available": true,
        "status": "active"
      }
    },
    {
      "type": "Feature",
      "geometry": {
        "type": "Polygon",
        "coordinates": [
          [
            [
              4.855133583927844,
              45.74109396291836
            ],
            [
              4.85369426656124,
              45.73646260528572
            ],
            [
              4.858631372257861,
              45.733595785253726
            ],
            [
              4.865008192818465,
              45.735360206977866
            ],
            [
              4.866448278648326,
              45.73999165914618
            ],
            [
              4.861510775470735,
              45.742858595073834
            ],
            [
              4.855133583927844,
              45.74109396291836
            ]
          ]
        ]
      },
      "properties": {
        "uuid": "2db07465-9e57-4efa-bc43-532cd187e10f",
        "h3_index": "881f902529fffff",
        "city_code": "69123",
        "city_name": "Lyon",
        "latitude": 45.73822728467521,
        "longitude": 4.860070981019331,
        "manual_surge": 0,
        "available": true,
        "status": "active"
      }
    },
    {
      "type": "Feature",
      "geometry": {
        "type": "Polygon",
        "coordinates": [
          [
            [
              4.859452650136441,
              45.75498690139058
            ],
            [
              4.8580127756813365,
              45.750356111028594
            ],
            [
              4.862950755646169,
              45.74748971639173
            ],
            [
              4.869329007597867,
              45.74925399621151
            ],
            [
              4.870769650785811,
              45.75388488099285
            ],
            [
              4.865831273305652,
              45.756751391554246
            ],
            [
              4.859452650136441,
              45.75498690139058
            ]
          ]
        ]
      },
      "properties": {
        "uuid": "b8b68359-e7e1-4082-ba73-de5f1760f69f",
        "h3_index": "881f90250dfffff",
        "city_code": "69123",
        "city_name": "Lyon",
        "latitude": 45.752120648571136,
        "longitude": 4.864390921579782,
        "manual_surge": 0,
        "available": true,
        "status": "active"
      }
    },
    {
      "type": "Feature",
      "geometry": {
        "type": "Polygon",
        "coordinates": [
          [
            [
              4.845454400632581,
              45.78496691510933
            ],
            [
              4.844014949718282,
              45.78033744962441
            ],
            [
              4.848954837367292,
              45.77747322100172
            ],
            [
              4.855334574114599,
              45.77923834207543
            ],
            [
              4.856774794364353,
              45.78386790201552
            ],
            [
              4.851834508547712,
              45.786732246445894
            ],
            [
              4.845454400632581,
              45.78496691510933
            ]
          ]
        ]
      },
      "properties": {
        "uuid": "5eb88196-ab53-4214-ba3f-9b9be3c62017",
        "h3_index": "881f902723fffff",
        "city_code": "69123",
        "city_name": "Lyon",
        "latitude": 45.78210282845636,
        "longitude": 4.85039458004888,
        "manual_surge": 0,
        "available": true,
        "status": "active"
      }
    },
    {
      "type": "Feature",
      "geometry": {
        "type": "Polygon",
        "coordinates": [
          [
            [
              4.7837548150339,
              45.755174972155665
            ],
            [
              4.78232021580689,
              45.75054451547254
            ],
            [
              4.787258264572633,
              45.74768217897461
            ],
            [
              4.79363131197137,
              45.749450183838746
            ],
            [
              4.795066679997506,
              45.75408073587267
            ],
            [
              4.790128231841862,
              45.756943187710775
            ],
            [
              4.7837548150339,
              45.755174972155665
            ]
          ]
        ]
      },
      "properties": {
        "uuid": "e1ad786a-9123-4278-bde6-b0ad74f7e3c9",
        "h3_index": "881f902085fffff",
        "city_code": "69123",
        "city_name": "Lyon",
        "latitude": 45.75231277777144,
        "longitude": 4.78869315562902,
        "manual_surge": 0,
        "available": true,
        "status": "active"
      }
    },
    {
      "type": "Feature",
      "geometry": {
        "type": "Polygon",
        "coordinates": [
          [
            [
              4.882087260974963,
              45.75278164030333
            ],
            [
              4.88064584908591,
              45.74815066123709
            ],
            [
              4.885583669780063,
              45.745282952079535
            ],
            [
              4.891963299311628,
              45.74704610590794
            ],
            [
              4.893405479869949,
              45.75167717912465
            ],
            [
              4.888467262243968,
              45.75454500438166
            ],
            [
              4.882087260974963,
              45.75278164030333
            ]
          ]
        ]
      },
      "properties": {
        "uuid": "124df72c-9647-48d3-a8dc-056917eb64a6",
        "h3_index": "881f902503fffff",
        "city_code": "69123",
        "city_name": "Lyon",
        "latitude": 45.74991407286756,
        "longitude": 4.887025373026028,
        "manual_surge": 0,
        "available": true,
        "status": "active"
      }
    },
    {
      "type": "Feature",
      "geometry": {
        "type": "Polygon",
        "coordinates": [
          [
            [
              4.855953961999722,
              45.76248321395214
            ],
            [
              4.854514193330855,
              45.75785275465148
            ],
            [
              4.859452650136441,
              45.75498690139058
            ],
            [
              4.865831273305652,
              45.756751391554246
            ],
            [
              4.867271810857952,
              45.761381945283226
            ],
            [
              4.862332956374027,
              45.764247914439395
            ],
            [
              4.855953961999722,
              45.76248321395214
            ]
          ]
        ]
      },
      "properties": {
        "uuid": "0f1d3195-f82c-4a0a-af98-9d970d746b31",
        "h3_index": "881f902547fffff",
        "city_code": "69123",
        "city_name": "Lyon",
        "latitude": 45.75961750254678,
        "longitude": 4.860892710355972,
        "manual_surge": 0,
        "available": true,
        "status": "active"
      }
    },
    {
      "type": "Feature",
      "geometry": {
        "type": "Polygon",
        "coordinates": [
          [
            [
              4.826317581850476,
              45.77966909002807
            ],
            [
              4.824879563415343,
              45.77503948246163
            ],
            [
              4.829819131072247,
              45.77217602693644
            ],
            [
              4.836197115768187,
              45.77394206333525
            ],
            [
              4.837635903450578,
              45.77857176561668
            ],
            [
              4.832695937206045,
              45.78143533680345
            ],
            [
              4.826317581850476,
              45.77966909002807
            ]
          ]
        ]
      },
      "properties": {
        "uuid": "2f15ed67-d8ff-43da-b0c3-6cba2b8eabe6",
        "h3_index": "881f902725fffff",
        "city_code": "69123",
        "city_name": "Lyon",
        "latitude": 45.776805776530075,
        "longitude": 4.831257441323635,
        "manual_surge": 0,
        "available": true,
        "status": "active"
      }
    },
    {
      "type": "Feature",
      "geometry": {
        "type": "Polygon",
        "coordinates": [
          [
            [
              4.807186022147861,
              45.77436852037602
            ],
            [
              4.805749435779657,
              45.76973877133493
            ],
            [
              4.810688682332485,
              45.76687608864128
            ],
            [
              4.817064914276682,
              45.76864303949247
            ],
            [
              4.818502269803462,
              45.773272883508284
            ],
            [
              4.81356262424367,
              45.77613568171735
            ],
            [
              4.807186022147861,
              45.77436852037602
            ]
          ]
        ]
      },
      "properties": {
        "uuid": "683153c4-2c12-4ec7-8ade-c3c4fe6500ac",
        "h3_index": "881f9020d7fffff",
        "city_code": "69123",
        "city_name": "Lyon",
        "latitude": 45.77150597976706,
        "longitude": 4.8121255605656845,
        "manual_surge": 0,
        "available": true,
        "status": "active"
      }
    },
    {
      "type": "Feature",
      "geometry": {
        "type": "Polygon",
        "coordinates": [
          [
            [
              4.821193165905273,
              45.74439355688101
            ],
            [
              4.819756154116154,
              45.73976248366187
            ],
            [
              4.824693495166898,
              45.73689763474312
            ],
            [
              4.831068246377538,
              45.73866374342982
            ],
            [
              4.832506026723574,
              45.74329491158783
            ],
            [
              4.827568287318298,
              45.74615987613939
            ],
            [
              4.821193165905273,
              45.74439355688101
            ]
          ]
        ]
      },
      "properties": {
        "uuid": "9e278058-85d9-4512-920d-16caf2e35104",
        "h3_index": "881f9020b3fffff",
        "city_code": "69123",
        "city_name": "Lyon",
        "latitude": 45.741528849894536,
        "longitude": 4.826130798532461,
        "manual_surge": 0,
        "available": true,
        "status": "active"
      }
    },
    {
      "type": "Feature",
      "geometry": {
        "type": "Polygon",
        "coordinates": [
          [
            [
              4.802876819157293,
              45.76047870592882
            ],
            [
              4.801440788835012,
              45.75584838967923
            ],
            [
              4.8063791599607955,
              45.75298528078827
            ],
            [
              4.812753960396629,
              45.754752372679675
            ],
            [
              4.814190759607361,
              45.759382784020424
            ],
            [
              4.809251989509978,
              45.762246008397746
            ],
            [
              4.802876819157293,
              45.76047870592882
            ]
          ]
        ]
      },
      "properties": {
        "uuid": "3049e5ee-b772-4025-8816-c9ea74d460b1",
        "h3_index": "881f902083fffff",
        "city_code": "69123",
        "city_name": "Lyon",
        "latitude": 45.75761573909415,
        "longitude": 4.807815482064096,
        "manual_surge": 0,
        "available": true,
        "status": "active"
      }
    },
    {
      "type": "Feature",
      "geometry": {
        "type": "Polygon",
        "coordinates": [
          [
            [
              4.8812596755324575,
              45.73138845465015
            ],
            [
              4.879818715832924,
              45.72675657734472
            ],
            [
              4.884755185833907,
              45.72388790201486
            ],
            [
              4.891133012286088,
              45.72565098790967
            ],
            [
              4.8925747402349025,
              45.73028295947285
            ],
            [
              4.88763787349879,
              45.7331517509026
            ],
            [
              4.8812596755324575,
              45.73138845465015
            ]
          ]
        ]
      },
      "properties": {
        "uuid": "38e83071-4bac-4196-b5a5-f626f0243785",
        "h3_index": "881f902535fffff",
        "city_code": "69123",
        "city_name": "Lyon",
        "latitude": 45.72851992097523,
        "longitude": 4.886196436734737,
        "manual_surge": 0,
        "available": true,
        "status": "active"
      }
    },
    {
      "type": "Feature",
      "geometry": {
        "type": "Polygon",
        "coordinates": [
          [
            [
              4.8063791599607955,
              45.75298528078827
            ],
            [
              4.804943023165961,
              45.74835463353783
            ],
            [
              4.8098809180527,
              45.74549098307747
            ],
            [
              4.816255348558921,
              45.74725786437092
            ],
            [
              4.8176922540918525,
              45.751888606703574
            ],
            [
              4.812753960396629,
              45.754752372679675
            ],
            [
              4.8063791599607955,
              45.75298528078827
            ]
          ]
        ]
      },
      "properties": {
        "uuid": "889d7f8e-1353-48d0-afa7-47415cae01fd",
        "h3_index": "881f9020b9fffff",
        "city_code": "69123",
        "city_name": "Lyon",
        "latitude": 45.7501217723461,
        "longitude": 4.811317346556435,
        "manual_surge": 0,
        "available": true,
        "status": "active"
      }
    },
    {
      "type": "Feature",
      "geometry": {
        "type": "Polygon",
        "coordinates": [
          [
            [
              4.8395044096397175,
              45.72830069136253
            ],
            [
              4.838066417279865,
              45.72366886176613
            ],
            [
              4.843002727629404,
              45.720802273350806
            ],
            [
              4.849377428092803,
              45.72256739877178
            ],
            [
              4.850816188677815,
              45.727199323154615
            ],
            [
              4.845879480590588,
              45.73006602734919
            ],
            [
              4.8395044096397175,
              45.72830069136253
            ]
          ]
        ]
      },
      "properties": {
        "uuid": "a2c967d6-e2bf-4cd6-aef3-e903c12187c1",
        "h3_index": "881f902e53fffff",
        "city_code": "69123",
        "city_name": "Lyon",
        "latitude": 45.7254342447553,
        "longitude": 4.844441011361076,
        "manual_surge": 0,
        "available": true,
        "status": "active"
      }
    },
    {
      "type": "Feature",
      "geometry": {
        "type": "Polygon",
        "coordinates": [
          [
            [
              4.814999873400562,
              45.780765194434466
            ],
            [
              4.81356262424367,
              45.77613568171735
            ],
            [
              4.818502269803462,
              45.773272883508284
            ],
            [
              4.824879563415343,
              45.77503948246163
            ],
            [
              4.826317581850476,
              45.77966909002807
            ],
            [
              4.821377537411714,
              45.782532003811
            ],
            [
              4.814999873400562,
              45.780765194434466
            ]
          ]
        ]
      },
      "properties": {
        "uuid": "38324093-f406-4c84-87ec-2e0755956aa8",
        "h3_index": "881f9020d3fffff",
        "city_code": "69123",
        "city_name": "Lyon",
        "latitude": 45.77790253830037,
        "longitude": 4.819939810837118,
        "manual_surge": 0,
        "available": true,
        "status": "active"
      }
    },
    {
      "type": "Feature",
      "geometry": {
        "type": "Polygon",
        "coordinates": [
          [
            [
              4.867271810857952,
              45.761381945283226
            ],
            [
              4.865831273305652,
              45.756751391554246
            ],
            [
              4.870769650785811,
              45.75388488099285
            ],
            [
              4.877148963221345,
              45.75564880819683
            ],
            [
              4.8785902696254375,
              45.76027945621974
            ],
            [
              4.8736514947586755,
              45.76314608276393
            ],
            [
              4.867271810857952,
              45.761381945283226
            ]
          ]
        ]
      },
      "properties": {
        "uuid": "e3a3950d-ba19-40ba-94c8-586e49c7e6e8",
        "h3_index": "881f902509fffff",
        "city_code": "69123",
        "city_name": "Lyon",
        "latitude": 45.75851557652959,
        "longitude": 4.872210479828028,
        "manual_surge": 0,
        "available": true,
        "status": "active"
      }
    },
    {
      "type": "Feature",
      "geometry": {
        "type": "Polygon",
        "coordinates": [
          [
            [
              4.841136605121073,
              45.77107795046179
            ],
            [
              4.839697711369885,
              45.76644791689947
            ],
            [
              4.844636723884614,
              45.763583262424234
            ],
            [
              4.851015028299837,
              45.765348525751946
            ],
            [
              4.852454691116495,
              45.76997865388595
            ],
            [
              4.847515280468798,
              45.77284342413966
            ],
            [
              4.841136605121073,
              45.77107795046179
            ]
          ]
        ]
      },
      "properties": {
        "uuid": "38ab69df-2fc4-400c-b025-d5ef515209f5",
        "h3_index": "881f90254dfffff",
        "city_code": "69123",
        "city_name": "Lyon",
        "latitude": 45.76821343792794,
        "longitude": 4.846075909319288,
        "manual_surge": 0,
        "available": true,
        "status": "active"
      }
    },
    {
      "type": "Feature",
      "geometry": {
        "type": "Polygon",
        "coordinates": [
          [
            [
              4.814190759607361,
              45.759382784020424
            ],
            [
              4.812753960396629,
              45.754752372679675
            ],
            [
              4.8176922540918525,
              45.751888606703574
            ],
            [
              4.824067745694634,
              45.75365513651328
            ],
            [
              4.82550531376306,
              45.75828564281089
            ],
            [
              4.820566621387215,
              45.761149524361066
            ],
            [
              4.814190759607361,
              45.759382784020424
            ]
          ]
        ]
      },
      "properties": {
        "uuid": "d0e670e7-ed12-46c1-a66a-656e04bc3485",
        "h3_index": "881f902095fffff",
        "city_code": "69123",
        "city_name": "Lyon",
        "latitude": 45.756519160052875,
        "longitude": 4.819129345023257,
        "manual_surge": 0,
        "available": true,
        "status": "active"
      }
    },
    {
      "type": "Feature",
      "geometry": {
        "type": "Polygon",
        "coordinates": [
          [
            [
              4.83682048079177,
              45.757187282101604
            ],
            [
              4.8353821438966085,
              45.7525566809815
            ],
            [
              4.84032028152834,
              45.74969160073881
            ],
            [
              4.846697154169822,
              45.75145700588596
            ],
            [
              4.84813625986063,
              45.75608770169421
            ],
            [
              4.8431977241306425,
              45.75895289768629
            ],
            [
              4.83682048079177,
              45.757187282101604
            ]
          ]
        ]
      },
      "properties": {
        "uuid": "fe7b68c1-e0f2-4dc4-b24a-08207ba3e8b4",
        "h3_index": "881f902569fffff",
        "city_code": "69123",
        "city_name": "Lyon",
        "latitude": 45.7543223437719,
        "longitude": 4.84175891002325,
        "manual_surge": 0,
        "available": true,
        "status": "active"
      }
    },
    {
      "type": "Feature",
      "geometry": {
        "type": "Polygon",
        "coordinates": [
          [
            [
              4.823882125689347,
              45.715505070340946
            ],
            [
              4.822445457521746,
              45.71087276966831
            ],
            [
              4.827380972011773,
              45.70800641263714
            ],
            [
              4.833753552679378,
              45.70977224063472
            ],
            [
              4.8351909888337525,
              45.71440463634433
            ],
            [
              4.830255076349993,
              45.71727110903851
            ],
            [
              4.823882125689347,
              45.715505070340946
            ]
          ]
        ]
      },
      "properties": {
        "uuid": "8c072ddc-023d-4fd8-9d87-e981ff6ba1f4",
        "h3_index": "881f902e0bfffff",
        "city_code": "69123",
        "city_name": "Lyon",
        "latitude": 45.71263885513694,
        "longitude": 4.828817931527947,
        "manual_surge": 0,
        "available": true,
        "status": "active"
      }
    },
    {
      "type": "Feature",
      "geometry": {
        "type": "Polygon",
        "coordinates": [
          [
            [
              4.837635903450578,
              45.77857176561668
            ],
            [
              4.836197115768187,
              45.77394206333525
            ],
            [
              4.841136605121073,
              45.77107795046179
            ],
            [
              4.847515280468798,
              45.77284342413966
            ],
            [
              4.848954837367292,
              45.77747322100172
            ],
            [
              4.844014949718282,
              45.78033744962441
            ],
            [
              4.837635903450578,
              45.77857176561668
            ]
          ]
        ]
      },
      "properties": {
        "uuid": "d3263079-b02e-415a-baae-782e0e2be8de",
        "h3_index": "881f902727fffff",
        "city_code": "69123",
        "city_name": "Lyon",
        "latitude": 45.775707794722656,
        "longitude": 4.842575684559157,
        "manual_surge": 0,
        "available": true,
        "status": "active"
      }
    },
    {
      "type": "Feature",
      "geometry": {
        "type": "Polygon",
        "coordinates": [
          [
            [
              4.772443565901578,
              45.75626798983642
            ],
            [
              4.771009735503919,
              45.751637628638356
            ],
            [
              4.775947860608349,
              45.74877594907304
            ],
            [
              4.78232021580689,
              45.75054451547254
            ],
            [
              4.7837548150339,
              45.755174972155665
            ],
            [
              4.778816290249044,
              45.758036766973326
            ],
            [
              4.772443565901578,
              45.75626798983642
            ]
          ]
        ]
      },
      "properties": {
        "uuid": "3349621b-edb3-4935-b55d-57153078e4f8",
        "h3_index": "881f9020e3fffff",
        "city_code": "69123",
        "city_name": "Lyon",
        "latitude": 45.753406452432536,
        "longitude": 4.777381982895521,
        "manual_surge": 0,
        "available": true,
        "status": "active"
      }
    },
    {
      "type": "Feature",
      "geometry": {
        "type": "Polygon",
        "coordinates": [
          [
            [
              4.818502269803462,
              45.773272883508284
            ],
            [
              4.817064914276682,
              45.76864303949247
            ],
            [
              4.822004083217821,
              45.765779699570416
            ],
            [
              4.828381006417764,
              45.76754608808021
            ],
            [
              4.829819131072247,
              45.77217602693644
            ],
            [
              4.824879563415343,
              45.77503948246163
            ],
            [
              4.818502269803462,
              45.773272883508284
            ]
          ]
        ]
      },
      "properties": {
        "uuid": "73c53445-be80-44f7-8a16-b4b6f5479451",
        "h3_index": "881f902099fffff",
        "city_code": "69123",
        "city_name": "Lyon",
        "latitude": 45.77040968562318,
        "longitude": 4.823441730549163,
        "manual_surge": 0,
        "available": true,
        "status": "active"
      }
    },
    {
      "type": "Feature",
      "geometry": {
        "type": "Polygon",
        "coordinates": [
          [
            [
              4.799373895522916,
              45.767971258308904
            ],
            [
              4.797937971739215,
              45.76334127316549
            ],
            [
              4.802876819157293,
              45.76047870592882
            ],
            [
              4.809251989509978,
              45.762246008397746
            ],
            [
              4.810688682332485,
              45.76687608864128
            ],
            [
              4.805749435779657,
              45.76973877133493
            ],
            [
              4.799373895522916,
              45.767971258308904
            ]
          ]
        ]
      },
      "properties": {
        "uuid": "91ad6e39-8896-4dc5-a838-79167cd2601a",
        "h3_index": "881f90208bfffff",
        "city_code": "69123",
        "city_name": "Lyon",
        "latitude": 45.76510883316662,
        "longitude": 4.804313034794155,
        "manual_surge": 0,
        "available": true,
        "status": "active"
      }
    },
    {
      "type": "Feature",
      "geometry": {
        "type": "Polygon",
        "coordinates": [
          [
            [
              4.84032028152834,
              45.74969160073881
            ],
            [
              4.838881838611813,
              45.745060668644776
            ],
            [
              4.843819499675299,
              45.742195046999626
            ],
            [
              4.8501960016068955,
              45.74396024168892
            ],
            [
              4.851635213168563,
              45.748591268462064
            ],
            [
              4.846697154169822,
              45.75145700588596
            ],
            [
              4.84032028152834,
              45.74969160073881
            ]
          ]
        ]
      },
      "properties": {
        "uuid": "049c4704-5cdf-4d34-859e-5dd8af0c8acc",
        "h3_index": "881f902561fffff",
        "city_code": "69123",
        "city_name": "Lyon",
        "latitude": 45.746826120968514,
        "longitude": 4.845258234119425,
        "manual_surge": 0,
        "available": true,
        "status": "active"
      }
    },
    {
      "type": "Feature",
      "geometry": {
        "type": "Polygon",
        "coordinates": [
          [
            [
              4.807993331151487,
              45.795747196492265
            ],
            [
              4.806556294932659,
              45.79111834668787
            ],
            [
              4.811496893889714,
              45.78825663215903
            ],
            [
              4.81787492828742,
              45.7900236519384
            ],
            [
              4.8193127340855995,
              45.79465259660989
            ],
            [
              4.814371735922969,
              45.79751442665409
            ],
            [
              4.807993331151487,
              45.795747196492265
            ]
          ]
        ]
      },
      "properties": {
        "uuid": "0a503c27-5f70-48db-9559-ec99b8fa4574",
        "h3_index": "881f902765fffff",
        "city_code": "69123",
        "city_name": "Lyon",
        "latitude": 45.79288562411436,
        "longitude": 4.8129342221297176,
        "manual_surge": 0,
        "available": true,
        "status": "active"
      }
    },
    {
      "type": "Feature",
      "geometry": {
        "type": "Polygon",
        "coordinates": [
          [
            [
              4.851635213168563,
              45.748591268462064
            ],
            [
              4.8501960016068955,
              45.74396024168892
            ],
            [
              4.855133583927844,
              45.74109396291836
            ],
            [
              4.861510775470735,
              45.742858595073834
            ],
            [
              4.862950755646169,
              45.74748971639173
            ],
            [
              4.8580127756813365,
              45.750356111028594
            ],
            [
              4.851635213168563,
              45.748591268462064
            ]
          ]
        ]
      },
      "properties": {
        "uuid": "d67b4fdb-7445-4239-b483-ea8713ce2af9",
        "h3_index": "881f902563fffff",
        "city_code": "69123",
        "city_name": "Lyon",
        "latitude": 45.74572513151857,
        "longitude": 4.856573086956507,
        "manual_surge": 0,
        "available": true,
        "status": "active"
      }
    },
    {
      "type": "Feature",
      "geometry": {
        "type": "Polygon",
        "coordinates": [
          [
            [
              4.803682778934175,
              45.781860079034665
            ],
            [
              4.802246299086313,
              45.7772306613012
            ],
            [
              4.807186022147861,
              45.77436852037602
            ],
            [
              4.81356262424367,
              45.77613568171735
            ],
            [
              4.814999873400562,
              45.780765194434466
            ],
            [
              4.810059751168829,
              45.783627450845756
            ],
            [
              4.803682778934175,
              45.781860079034665
            ]
          ]
        ]
      },
      "properties": {
        "uuid": "e9f57f59-0a54-4928-9d63-6eaf6e8cbde9",
        "h3_index": "881f9020d1fffff",
        "city_code": "69123",
        "city_name": "Lyon",
        "latitude": 45.77899808023219,
        "longitude": 4.8086227939328925,
        "manual_surge": 0,
        "available": true,
        "status": "active"
      }
    },
    {
      "type": "Feature",
      "geometry": {
        "type": "Polygon",
        "coordinates": [
          [
            [
              4.848954837367292,
              45.77747322100172
            ],
            [
              4.847515280468798,
              45.77284342413966
            ],
            [
              4.852454691116495,
              45.76997865388595
            ],
            [
              4.858834056683519,
              45.77174356467656
            ],
            [
              4.860274382766759,
              45.776373455984874
            ],
            [
              4.855334574114599,
              45.77923834207543
            ],
            [
              4.848954837367292,
              45.77747322100172
            ]
          ]
        ]
      },
      "properties": {
        "uuid": "eaa548d1-79d8-40ab-ad3c-f516b5f945f4",
        "h3_index": "881f902549fffff",
        "city_code": "69123",
        "city_name": "Lyon",
        "latitude": 45.774608592679684,
        "longitude": 4.853894539710035,
        "manual_surge": 0,
        "available": true,
        "status": "active"
      }
    },
    {
      "type": "Feature",
      "geometry": {
        "type": "Polygon",
        "coordinates": [
          [
            [
              4.810688682332485,
              45.76687608864128
            ],
            [
              4.809251989509978,
              45.762246008397746
            ],
            [
              4.814190759607361,
              45.759382784020424
            ],
            [
              4.820566621387215,
              45.761149524361066
            ],
            [
              4.822004083217821,
              45.765779699570416
            ],
            [
              4.817064914276682,
              45.76864303949247
            ],
            [
              4.810688682332485,
              45.76687608864128
            ]
          ]
        ]
      },
      "properties": {
        "uuid": "06eb1b53-ef95-453f-8cc7-0e7589896d3e",
        "h3_index": "881f90209dfffff",
        "city_code": "69123",
        "city_name": "Lyon",
        "latitude": 45.7640130063106,
        "longitude": 4.815627744222676,
        "manual_surge": 0,
        "available": true,
        "status": "active"
      }
    },
    {
      "type": "Feature",
      "geometry": {
        "type": "Polygon",
        "coordinates": [
          [
            [
              4.811496893889714,
              45.78825663215903
            ],
            [
              4.810059751168829,
              45.783627450845756
            ],
            [
              4.814999873400562,
              45.780765194434466
            ],
            [
              4.821377537411714,
              45.782532003811
            ],
            [
              4.822815449561405,
              45.78716127998249
            ],
            [
              4.81787492828742,
              45.7900236519384
            ],
            [
              4.811496893889714,
              45.78825663215903
            ]
          ]
        ]
      },
      "properties": {
        "uuid": "3e314fec-dc65-4368-90bd-72007b78b607",
        "h3_index": "881f9020dbfffff",
        "city_code": "69123",
        "city_name": "Lyon",
        "latitude": 45.78539451786071,
        "longitude": 4.816437308070433,
        "manual_surge": 0,
        "available": true,
        "status": "active"
      }
    },
    {
      "type": "Feature",
      "geometry": {
        "type": "Polygon",
        "coordinates": [
          [
            [
              4.847318135351997,
              45.73469762107462
            ],
            [
              4.845879480590588,
              45.73006602734919
            ],
            [
              4.850816188677815,
              45.727199323154615
            ],
            [
              4.857191949152202,
              45.728964096867195
            ],
            [
              4.858631372257861,
              45.733595785253726
            ],
            [
              4.85369426656124,
              45.73646260528572
            ],
            [
              4.847318135351997,
              45.73469762107462
            ]
          ]
        ]
      },
      "properties": {
        "uuid": "db075394-a0e5-4f93-8b5f-4eadf651d798",
        "h3_index": "881f90252dfffff",
        "city_code": "69123",
        "city_name": "Lyon",
        "latitude": 45.73183105867854,
        "longitude": 4.8522551348225855,
        "manual_surge": 0,
        "available": true,
        "status": "active"
      }
    },
    {
      "type": "Feature",
      "geometry": {
        "type": "Polygon",
        "coordinates": [
          [
            [
              4.7958703889383685,
              45.775462937738496
            ],
            [
              4.794434571759351,
              45.770833283806446
            ],
            [
              4.799373895522916,
              45.767971258308904
            ],
            [
              4.805749435779657,
              45.76973877133493
            ],
            [
              4.807186022147861,
              45.77436852037602
            ],
            [
              4.802246299086313,
              45.7772306613012
            ],
            [
              4.7958703889383685,
              45.775462937738496
            ]
          ]
        ]
      },
      "properties": {
        "uuid": "97f60f3a-3e0a-4973-90a9-67cfcec49207",
        "h3_index": "881f9020d5fffff",
        "city_code": "69123",
        "city_name": "Lyon",
        "latitude": 45.772601054373375,
        "longitude": 4.800810004627253,
        "manual_surge": 0,
        "available": true,
        "status": "active"
      }
    },
    {
      "type": "Feature",
      "geometry": {
        "type": "Polygon",
        "coordinates": [
          [
            [
              4.862950755646169,
              45.74748971639173
            ],
            [
              4.861510775470735,
              45.742858595073834
            ],
            [
              4.866448278648326,
              45.73999165914618
            ],
            [
              4.8728261593701845,
              45.741755728601824
            ],
            [
              4.874266908127857,
              45.74638694433006
            ],
            [
              4.869329007597867,
              45.74925399621151
            ],
            [
              4.862950755646169,
              45.74748971639173
            ]
          ]
        ]
      },
      "properties": {
        "uuid": "fa570e05-34e3-47a1-b2d5-b3e0cfea60aa",
        "h3_index": "881f902505fffff",
        "city_code": "69123",
        "city_name": "Lyon",
        "latitude": 45.74462292224335,
        "longitude": 4.867888550230095,
        "manual_surge": 0,
        "available": true,
        "status": "active"
      }
    },
    {
      "type": "Feature",
      "geometry": {
        "type": "Polygon",
        "coordinates": [
          [
            [
              4.788861626441447,
              45.79044367698684
            ],
            [
              4.787426022670127,
              45.7858146857929
            ],
            [
              4.792366299284345,
              45.782953744027736
            ],
            [
              4.798742579310629,
              45.78472167810666
            ],
            [
              4.800178952572022,
              45.789350764427425
            ],
            [
              4.795238276333184,
              45.79221182156159
            ],
            [
              4.788861626441447,
              45.79044367698684
            ]
          ]
        ]
      },
      "properties": {
        "uuid": "5720c42d-73a7-4261-8847-a780b1816a95",
        "h3_index": "881f9022b7fffff",
        "city_code": "69123",
        "city_name": "Lyon",
        "latitude": 45.787582877430076,
        "longitude": 4.793802195125346,
        "manual_surge": 0,
        "available": true,
        "status": "active"
      }
    },
    {
      "type": "Feature",
      "geometry": {
        "type": "Polygon",
        "coordinates": [
          [
            [
              4.829005961558518,
              45.7507907134199
            ],
            [
              4.827568287318298,
              45.74615987613939
            ],
            [
              4.832506026723574,
              45.74329491158783
            ],
            [
              4.838881838611813,
              45.745060668644776
            ],
            [
              4.84032028152834,
              45.74969160073881
            ],
            [
              4.8353821438966085,
              45.7525566809815
            ],
            [
              4.829005961558518,
              45.7507907134199
            ]
          ]
        ]
      },
      "properties": {
        "uuid": "e00361ed-b37d-40bd-b961-c7e62569250c",
        "h3_index": "881f90256dfffff",
        "city_code": "69123",
        "city_name": "Lyon",
        "latitude": 45.74792589079097,
        "longitude": 4.833943992551906,
        "manual_surge": 0,
        "available": true,
        "status": "active"
      }
    },
    {
      "type": "Feature",
      "geometry": {
        "type": "Polygon",
        "coordinates": [
          [
            [
              4.829819131072247,
              45.77217602693644
            ],
            [
              4.828381006417764,
              45.76754608808021
            ],
            [
              4.833320097346219,
              45.764682090897566
            ],
            [
              4.839697711369885,
              45.76644791689947
            ],
            [
              4.841136605121073,
              45.77107795046179
            ],
            [
              4.836197115768187,
              45.77394206333525
            ],
            [
              4.829819131072247,
              45.77217602693644
            ]
          ]
        ]
      },
      "properties": {
        "uuid": "dd936f54-4ea6-4c02-bc4f-a71e08edfdef",
        "h3_index": "881f90209bfffff",
        "city_code": "69123",
        "city_name": "Lyon",
        "latitude": 45.76931217174298,
        "longitude": 4.8347585137447835,
        "manual_surge": 0,
        "available": true,
        "status": "active"
      }
    },
    {
      "type": "Feature",
      "geometry": {
        "type": "Polygon",
        "coordinates": [
          [
            [
              4.816882686578787,
              45.73049977070664
            ],
            [
              4.815446230762411,
              45.72586813108616
            ],
            [
              4.820382697251409,
              45.723002856427755
            ],
            [
              4.826756017892454,
              45.724769105804924
            ],
            [
              4.828193241996037,
              45.729400840480544
            ],
            [
              4.8232563771875725,
              45.73226623074298
            ],
            [
              4.816882686578787,
              45.73049977070664
            ]
          ]
        ]
      },
      "properties": {
        "uuid": "f69cbedf-e87a-4fcd-8a64-0bb916d3007b",
        "h3_index": "881f902e5dfffff",
        "city_code": "69123",
        "city_name": "Lyon",
        "latitude": 45.727634637951915,
        "longitude": 4.8218194445604246,
        "manual_surge": 0,
        "available": true,
        "status": "active"
      }
    },
    {
      "type": "Feature",
      "geometry": {
        "type": "Polygon",
        "coordinates": [
          [
            [
              4.844636723884614,
              45.763583262424234
            ],
            [
              4.8431977241306425,
              45.75895289768629
            ],
            [
              4.84813625986063,
              45.75608770169421
            ],
            [
              4.854514193330855,
              45.75785275465148
            ],
            [
              4.855953961999722,
              45.76248321395214
            ],
            [
              4.851015028299837,
              45.765348525751946
            ],
            [
              4.844636723884614,
              45.763583262424234
            ]
          ]
        ]
      },
      "properties": {
        "uuid": "10b53e95-9505-436a-ba50-4f8d05f5dc2a",
        "h3_index": "881f902545fffff",
        "city_code": "69123",
        "city_name": "Lyon",
        "latitude": 45.76071820833547,
        "longitude": 4.849575551225926,
        "manual_surge": 0,
        "available": true,
        "status": "active"
      }
    },
    {
      "type": "Feature",
      "geometry": {
        "type": "Polygon",
        "coordinates": [
          [
            [
              4.8133820935522955,
              45.73799581298676
            ],
            [
              4.811945744010458,
              45.73336450405079
            ],
            [
              4.816882686578787,
              45.73049977070664
            ],
            [
              4.8232563771875725,
              45.73226623074298
            ],
            [
              4.824693495166898,
              45.73689763474312
            ],
            [
              4.819756154116154,
              45.73976248366187
            ],
            [
              4.8133820935522955,
              45.73799581298676
            ]
          ]
        ]
      },
      "properties": {
        "uuid": "01e17ebf-53cb-4b00-b5a6-07e4f2b24aad",
        "h3_index": "881f9020b7fffff",
        "city_code": "69123",
        "city_name": "Lyon",
        "latitude": 45.735131221584474,
        "longitude": 4.818319327685354,
        "manual_surge": 0,
        "available": true,
        "status": "active"
      }
    },
    {
      "type": "Feature",
      "geometry": {
        "type": "Polygon",
        "coordinates": [
          [
            [
              4.877763583003582,
              45.738888135485546
            ],
            [
              4.876322728742067,
              45.73425658891593
            ],
            [
              4.8812596755324575,
              45.73138845465015
            ],
            [
              4.88763787349879,
              45.7331517509026
            ],
            [
              4.889079496160202,
              45.73778339173908
            ],
            [
              4.884142152471904,
              45.7406516420754
            ],
            [
              4.877763583003582,
              45.738888135485546
            ]
          ]
        ]
      },
      "properties": {
        "uuid": "107b46bf-7a07-4358-a357-0ca0ce5cb9ab",
        "h3_index": "881f90253dfffff",
        "city_code": "69123",
        "city_name": "Lyon",
        "latitude": 45.736020142913,
        "longitude": 4.882700821067421,
        "manual_surge": 0,
        "available": true,
        "status": "active"
      }
    },
    {
      "type": "Feature",
      "geometry": {
        "type": "Polygon",
        "coordinates": [
          [
            [
              4.828193241996037,
              45.729400840480544
            ],
            [
              4.826756017892454,
              45.724769105804924
            ],
            [
              4.831692406511923,
              45.72190317428399
            ],
            [
              4.838066417279865,
              45.72366886176613
            ],
            [
              4.8395044096397175,
              45.72830069136253
            ],
            [
              4.834567622991629,
              45.73116673857515
            ],
            [
              4.828193241996037,
              45.729400840480544
            ]
          ]
        ]
      },
      "properties": {
        "uuid": "87f3537a-76e0-4881-9fbe-1629658c8b14",
        "h3_index": "881f902e51fffff",
        "city_code": "69123",
        "city_name": "Lyon",
        "latitude": 45.72653505081549,
        "longitude": 4.833129922047778,
        "manual_surge": 0,
        "available": true,
        "status": "active"
      }
    }
  ]
}