{
  "type": "FeatureCollection",
  "features": [
    {
      "type": "Feature",
      "geometry": {
        "type": "Polygon",
        "coordinates": [
          [
            [
              2.326381,
              48.871134
            ],
            [
              2.312421,
              48.864334
            ],
            [
              2.314764,
              48.851963
            ],
            [
              2.33106,
              48.846394
            ],
            [
              2.345015,
              48.853194
            ],
            [
              2.342679,
              48.865563
            ],
            [
              2.326381,
              48.871134
            ]
          ]
        ]
      },
      "properties": {
        "uuid": "1283f43b-32aa-433c-b45d-54f27186b53b",
        "id": "PAR-CENTER",
        "h3_index": "871fb4675ffffff",
        "city_code": "PAR",
        "latitude": 48.85876448586028,
        "longitude": 2.328720894288783,
        "available": true,
        "manual_surge": 0,
        "status": "active"
      }
    }
  ]
}